{
"type": "FeatureCollection",
"name": "497年_萧齐北魏政权边界",
"crs": { "type": "name", "properties": { "name": "urn:ogc:def:crs:OGC:1.3:CRS84" } },
"features": [
{ "type": "Feature", "properties": { "Id": 497001, "LABEL_ENG": "Southern Qi", "LABEL_CHN": "萧齐", "COMMENT": "新建边界；采用与ChinaXMap相同的WGS84口径和约0.03°简化尺度。", "year": 497, "year_label": "497 CE", "regime": "萧齐", "source_kind": "tan_scan_georeferenced_xmap_aligned", "source_title": "齐、魏时期全图（建武四年，497年）", "source_url": "", "source_file": "04-19齐、魏时期全图.jpg", "geometry_origin": "atlas colour field and regime line; conic graticule georeferencing", "confidence": "medium", "crs": "OGC:CRS84 / WGS84 longitude-latitude" }, "geometry": { "type": "Polygon", "coordinates": [ [ [ 106.261777506142181, 17.951298680204602 ], [ 106.199914967077532, 17.98440264297993 ], [ 106.135465299138545, 17.956302045527892 ], [ 106.044452302439083, 18.051708645449892 ], [ 105.886383754369135, 18.057608143262769 ], [ 105.75760677301794, 18.000978099932198 ], [ 105.068487346858106, 18.742658893087309 ], [ 105.011271249968161, 18.958623703443564 ], [ 105.08462477190092, 19.262776133561445 ], [ 104.994113001486184, 19.449043339814395 ], [ 105.031833039924948, 19.631727449620413 ], [ 105.001550953615009, 19.693810015437805 ], [ 105.06778833074469, 19.753207633654569 ], [ 105.073522791587123, 19.936778743823595 ], [ 105.140953623182284, 20.026725739172093 ], [ 105.109646369649013, 20.058244707023462 ], [ 105.209514925613306, 20.147223692433926 ], [ 105.179184733458698, 20.209357075920849 ], [ 105.245892211187837, 20.26864317196133 ], [ 105.214540073729253, 20.300193084885137 ], [ 105.247926328630243, 20.329830265574856 ], [ 105.263266139608248, 20.788732221388514 ], [ 105.138052667293309, 20.94549103051969 ], [ 105.094525560669297, 21.115144576210852 ], [ 105.028268640696879, 21.086358974148879 ], [ 104.96485330662172, 21.149320875147069 ], [ 104.931265829234462, 21.119594948992571 ], [ 104.834194638044792, 21.152743166689078 ], [ 104.030005189859182, 21.782587709416646 ], [ 103.800311933677747, 21.817083098314413 ], [ 103.502298450447, 21.698944015856398 ], [ 103.336336460535236, 21.578545257606777 ], [ 103.139731473085774, 21.611250972204047 ], [ 102.518478805446108, 22.197083936999348 ], [ 102.254340518739127, 22.320242695447277 ], [ 101.775644071272026, 21.998524833164609 ], [ 101.84248123686848, 21.662001408836858 ], [ 101.810172181825877, 21.478270220851343 ], [ 101.500482132277924, 21.186236456080522 ], [ 101.402415443216896, 21.185654251705358 ], [ 101.055666250804791, 21.504285085335027 ], [ 101.004168164500243, 21.702746655094671 ], [ 100.808220110021111, 21.608766656633634 ], [ 100.581340686496517, 21.422161376419211 ], [ 100.450804845119976, 21.389641183143425 ], [ 100.351405925171221, 21.449308400309434 ], [ 100.220912509399085, 21.416509436221489 ], [ 99.868590886607976, 21.761902588801163 ], [ 99.812939046845159, 22.02098447488018 ], [ 99.515352667742704, 22.044941025494538 ], [ 99.318393182651107, 22.009462816666172 ], [ 99.184631001416307, 22.067200874225733 ], [ 98.98978524107352, 21.969933508145473 ], [ 98.889894355081168, 21.997651456067388 ], [ 98.75916303776026, 21.963084332976507 ], [ 98.434855211059826, 22.243594110861892 ], [ 98.490286865932092, 22.521100321174529 ], [ 98.420382236140767, 22.610654330810192 ], [ 98.440305149366182, 22.948240119722442 ], [ 98.370028493221341, 23.037761935837253 ], [ 98.366325362522275, 23.129524997924904 ], [ 98.558270662483324, 23.350269431989489 ], [ 98.521271810586569, 23.440957866316353 ], [ 98.552387207889495, 23.503218144565949 ], [ 98.448269505512599, 23.591708720077165 ], [ 98.444622336453477, 23.683474399300025 ], [ 98.266630516376281, 23.922493260239705 ], [ 98.29900601037312, 23.954238445803242 ], [ 98.078245455821616, 23.992400574990882 ], [ 98.013643506064568, 23.928771709232237 ], [ 97.911320269958964, 23.95558682232145 ], [ 97.779608467615788, 23.889257978949317 ], [ 97.522861493083369, 23.63382236713592 ], [ 97.188864478197843, 23.910598703878208 ], [ 97.31377853948635, 24.099926915273869 ], [ 97.278469967818197, 24.129042198662887 ], [ 97.297708750065411, 24.405667037616624 ], [ 97.362146905281534, 24.469712383755052 ], [ 97.325105270996445, 24.529417357380879 ], [ 97.452722571096714, 24.688014905820978 ], [ 97.410910593082832, 24.839476652034776 ], [ 97.508186135901468, 24.93543194461401 ], [ 97.534488081451045, 25.089707361493254 ], [ 97.63216508511195, 25.185554853503064 ], [ 97.557801905169043, 25.305131754789869 ], [ 97.623069280869146, 25.369025948105886 ], [ 97.616984770516254, 25.491339600736723 ], [ 98.06054966478078, 25.921651139970422 ], [ 98.096310224480973, 25.89228749153709 ], [ 98.428909764489333, 26.179212398515929 ], [ 98.516996022565692, 26.136080677882504 ], [ 98.575110789091454, 26.413544243585463 ], [ 98.641920374910228, 26.476843617779181 ], [ 98.620416193951925, 27.027473433203184 ], [ 98.221239523571541, 27.382252135835799 ], [ 98.032302473367977, 27.682071352895463 ], [ 98.064576682151312, 27.744468987512974 ], [ 98.421101041191832, 28.047330502577438 ], [ 98.457610749178698, 28.017852866409314 ], [ 98.597292166519679, 28.052778488627013 ], [ 98.706575485527495, 27.964144692280485 ], [ 98.846269898304257, 27.998769888911795 ], [ 99.58732002448221, 27.358870963612731 ], [ 99.55322985673223, 27.327505216148865 ], [ 99.768649373171755, 27.117741720762382 ], [ 99.736220026856913, 27.02522931449532 ], [ 100.038436392942145, 26.770814671274096 ], [ 100.10792530443058, 26.772041944936817 ], [ 100.327383860009405, 27.097080044005963 ], [ 100.325548687014077, 27.188891871856001 ], [ 100.462936015727493, 27.313372720367951 ], [ 100.391834761892056, 27.373570018386147 ], [ 100.390652775258857, 27.434778582301135 ], [ 100.528517261809398, 27.559181183900989 ], [ 100.526337546963504, 27.68160099964372 ], [ 100.92543066964005, 28.038340727311791 ], [ 101.1010085982481, 28.101191940292154 ], [ 101.419472921348529, 27.981031878420154 ], [ 101.56114162780176, 27.859328388406652 ], [ 101.666691755987799, 27.859762206827071 ], [ 101.683929240144963, 27.936346130893298 ], [ 101.824417001489337, 28.059187687890571 ], [ 101.789047724951871, 28.089710308744387 ], [ 101.929930872650104, 28.212423973748443 ], [ 101.894468012331814, 28.273587375520066 ], [ 102.071167547284048, 28.549226618301034 ], [ 102.106674841255852, 28.763487133227528 ], [ 102.213548716252348, 28.91646530262085 ], [ 102.142377302726828, 29.008345438994439 ], [ 102.249618251230615, 29.161290784030314 ], [ 102.213991835124517, 29.222551521202675 ], [ 102.465111633643644, 29.436277369361889 ], [ 102.393996269580583, 29.58952714946868 ], [ 102.719058665382121, 29.863721032841411 ], [ 102.64764237788259, 29.955907324776916 ], [ 103.159191956953066, 30.503374995005714 ], [ 103.123660249028163, 30.564909364309159 ], [ 103.436376526063725, 30.821982605090312 ], [ 103.562488755549879, 30.743965545680766 ], [ 103.418892117239082, 30.868095283626914 ], [ 103.492776764666687, 30.928474629650125 ], [ 103.457806348082059, 31.020713905613803 ], [ 103.531852722000622, 31.081069182672991 ], [ 103.497374016215076, 31.203925494925102 ], [ 103.571610168751505, 31.264256281730241 ], [ 103.574314465274668, 31.417282836068736 ], [ 103.538171352769552, 31.44833493356056 ], [ 103.818032038760194, 31.674242765447119 ], [ 103.872879350995575, 31.658138653162652 ], [ 103.838023357232117, 31.750488208861881 ], [ 104.063974969548255, 31.961310850262976 ], [ 104.06906405625692, 32.175529919318336 ], [ 104.144582016575555, 32.235506268063034 ], [ 104.109785978752498, 32.327933840992912 ], [ 104.432208879506973, 32.582400002245009 ], [ 104.578169163374341, 32.487658321000282 ], [ 104.768801314450869, 32.636717143163523 ], [ 104.913426764681816, 32.510977213155741 ], [ 104.951629595405961, 32.540708000090319 ], [ 105.060903349832557, 32.476852299967319 ], [ 105.136284217720345, 32.505614926870408 ], [ 105.208258177502799, 32.442549271041045 ], [ 105.822598921744088, 32.884726516281034 ], [ 105.898616314388008, 32.913017601118028 ], [ 105.970360609296279, 32.849504103123678 ], [ 106.158280123042204, 32.87403890059214 ], [ 106.782680533677294, 33.341977937278145 ], [ 106.889786765926843, 33.245920023745938 ], [ 107.244072660644136, 33.507426316501736 ], [ 107.396297826993901, 33.531625836169738 ], [ 107.592368327552023, 33.645659200998594 ], [ 107.663428987960259, 33.581163838384896 ], [ 107.780447518048007, 33.637142895944791 ], [ 108.169040119769093, 33.281324043169192 ], [ 108.435812089637508, 33.329191136258302 ], [ 108.578360114058924, 33.229741555630468 ], [ 108.757854023903946, 33.358178558482535 ], [ 108.762834838893141, 33.419261121508555 ], [ 109.143917883535963, 33.689527937779559 ], [ 109.297016574515098, 33.711382181789602 ], [ 109.66201857157445, 33.367254591443469 ], [ 109.578746540491451, 33.280267752517844 ], [ 109.613345367433226, 33.247460996551837 ], [ 109.49013937176386, 33.132173383961032 ], [ 109.576517346783632, 33.050200544933418 ], [ 109.777275993844754, 33.191268440854273 ], [ 109.81175799831918, 33.158406001055667 ], [ 109.926691798736982, 33.181824061527706 ], [ 110.029863883799166, 33.083082403054647 ], [ 110.141759348689988, 33.075786211149477 ], [ 110.222391973168044, 33.131882717379114 ], [ 110.328207236082079, 33.063399545482852 ], [ 110.405861505826451, 33.088869694735067 ], [ 110.650945040358778, 32.918400713046466 ], [ 111.096834501909669, 33.224429321977695 ], [ 111.303634747346948, 33.05539334165195 ], [ 111.507339305057542, 33.193618298138901 ], [ 111.574883621719252, 33.126924445773099 ], [ 111.772008850254622, 33.203765662647058 ], [ 111.880252740433804, 33.164420960220568 ], [ 111.921186422403068, 33.191901526855688 ], [ 112.088997574028397, 33.024531762393821 ], [ 112.335009227942678, 33.188793178462035 ], [ 112.625259458010106, 33.102638934264405 ], [ 112.740869890783046, 33.123419641104874 ], [ 113.06713953496994, 33.310151753911256 ], [ 113.447247771008904, 32.921299894724655 ], [ 113.15459792270515, 32.701796302308267 ], [ 113.249143700872352, 32.569979634132778 ], [ 113.167043434386883, 32.515892947286787 ], [ 113.216288659954586, 32.465199662140364 ], [ 113.37223053775115, 32.512419659549806 ], [ 113.552599109700353, 32.464730424782672 ], [ 113.634899751141774, 32.518557408446085 ], [ 113.700166362150426, 32.450711064363816 ], [ 113.778238433775343, 32.474036519706345 ], [ 113.973261354611253, 32.270163719527616 ], [ 114.124834557485087, 32.286025482646593 ], [ 114.323053772569537, 32.111982595925937 ], [ 114.442227819755999, 32.161542412796294 ], [ 114.575351334337157, 32.055329900137849 ], [ 114.657904036498735, 32.10846424495243 ], [ 114.689971356399397, 32.074273620296267 ], [ 114.896780567896428, 32.206808931640253 ], [ 115.075589104696803, 32.156872923368766 ], [ 115.200086869171741, 32.236041865498436 ], [ 115.508534522803558, 32.294854554490968 ], [ 115.687160579134087, 32.244019857078868 ], [ 116.037813196376746, 32.327685499730777 ], [ 116.205421134556147, 32.43189606171893 ], [ 116.268495794152429, 32.362697661991177 ], [ 116.310448366647122, 32.388692542338518 ], [ 116.378654283671253, 32.349739972215772 ], [ 116.8473299739547, 32.664747663362689 ], [ 117.025914040258172, 32.611952575312216 ], [ 117.4928390322452, 32.894210733724137 ], [ 117.617419228257745, 32.754461617602075 ], [ 117.69106253878499, 32.745021813401564 ], [ 118.069409854871793, 32.943786227957034 ], [ 118.199035996593764, 32.833670281276454 ], [ 118.401191608838275, 32.899734699336278 ], [ 118.468817391678385, 32.859620485277674 ], [ 118.619043400019208, 32.947863421472519 ], [ 118.631281260450535, 33.008254536455652 ], [ 118.859057944805215, 33.194342660906912 ], [ 118.840750599680405, 33.289974718900922 ], [ 118.890220305656925, 33.345257804568348 ], [ 118.797787333627866, 33.451043894900138 ], [ 118.903195718101884, 33.591806365863945 ], [ 118.810500370318096, 33.697602078002689 ], [ 118.860196784376299, 33.752897256655345 ], [ 118.399234395187946, 34.31122054939992 ], [ 118.417661205418341, 34.401839420486411 ], [ 118.93448048872969, 34.751635511752738 ], [ 119.116277401779911, 34.695800645456202 ], [ 119.380388339614058, 34.395217330896472 ], [ 119.367382667469599, 34.334902535719266 ], [ 120.290271019322404, 33.299837031000891 ], [ 120.336984392950427, 33.168372258347702 ], [ 120.29339409378737, 33.143783789766758 ], [ 120.346766019979384, 33.042423350596508 ], [ 120.326524517145629, 32.952105736613888 ], [ 120.387949160389212, 32.80280647297414 ], [ 120.468068347019852, 32.821802587017345 ], [ 120.660656627167256, 32.667870308830857 ], [ 120.791078409444935, 32.741198545907352 ], [ 120.850484650015446, 32.669700879987289 ], [ 120.96021675864516, 32.652615236732089 ], [ 121.047299637945287, 32.701303042726991 ], [ 121.106455454029458, 32.629681257890425 ], [ 121.186569686382512, 32.648206977188181 ], [ 121.245566920343109, 32.576517927351119 ], [ 121.289139290298777, 32.600767901614219 ], [ 121.53865325135709, 32.295683914905609 ], [ 121.213131782240708, 32.114099307540599 ], [ 121.147460032583822, 32.155712632525763 ], [ 121.032337159510831, 32.064865923811354 ], [ 121.076384283629352, 32.011157756970007 ], [ 121.315028241767223, 32.066638225551799 ], [ 121.504301697369087, 31.911381412635649 ], [ 121.547601595361883, 31.935539078240794 ], [ 121.72145189006045, 31.875941114320113 ], [ 122.046308002004366, 31.431866565341721 ], [ 121.995911186166097, 31.377877012292529 ], [ 122.132014042824807, 31.167630890317596 ], [ 122.038690366971963, 31.089710784359937 ], [ 122.117203015440055, 30.951551367271662 ], [ 121.752841449516538, 30.747454827822551 ], [ 121.544883318775049, 30.969064366916541 ], [ 121.487680050608532, 30.962861661786633 ], [ 121.516474122177215, 30.926948245755668 ], [ 121.338595538044913, 30.800132786637789 ], [ 121.532720460845468, 30.518806876879353 ], [ 121.277649062439181, 30.373601998452955 ], [ 121.370003611064092, 30.37407622809873 ], [ 121.583926280792966, 30.182807012869972 ], [ 121.725752718082163, 30.159130016244688 ], [ 121.853388543599522, 30.075246281089932 ], [ 122.093519571327221, 29.769022308964637 ], [ 121.924232848381067, 29.673082858446946 ], [ 122.064883339475173, 29.492926011917675 ], [ 122.036430748275507, 29.216822796257958 ], [ 121.637713020413671, 28.98838157911392 ], [ 121.560559794569613, 29.048189284989945 ], [ 121.812844140629579, 28.724569435019035 ], [ 121.645908495218549, 28.628229646730389 ], [ 121.653279095410539, 28.502187348470642 ], [ 121.709075657001989, 28.430274528804873 ], [ 121.619069116531122, 28.352027626506938 ], [ 121.640110291259475, 28.286051258368204 ], [ 121.246688691215468, 28.056272893185152 ], [ 121.107412639439389, 28.157413606197537 ], [ 121.094144675449712, 28.097287586366321 ], [ 121.150142261716795, 28.025643911673612 ], [ 120.820778093900401, 27.83084033305002 ], [ 120.842294889455275, 27.765010580065493 ], [ 120.719236148142571, 27.691740878532386 ], [ 120.686941244263494, 27.54131320801369 ], [ 120.736456505735902, 27.439783499778969 ], [ 120.613941086234817, 27.36640125944632 ], [ 120.629088492374507, 27.270520685091341 ], [ 120.319133804290061, 26.978402316732925 ], [ 120.076279901887119, 26.830621724329362 ], [ 120.132297310230811, 26.759473774633122 ], [ 119.85010980684352, 26.586551599314731 ], [ 119.906154351031518, 26.515514786379285 ], [ 119.745464200505182, 26.416468408828138 ], [ 119.801485145973004, 26.345483147830876 ], [ 119.761384955505378, 26.320705892395523 ], [ 119.789370121627854, 26.285212793932459 ], [ 119.623234656780568, 26.155857738082148 ], [ 119.705184349792418, 26.127477843665389 ], [ 119.914245688212418, 25.861216006698413 ], [ 119.868281666661858, 25.806347488233129 ], [ 119.92382372544202, 25.735301855762458 ], [ 119.933374877321469, 25.609386894010868 ], [ 119.635351988511417, 25.423565031777457 ], [ 119.512286197425382, 25.505044595941214 ], [ 119.3003373687406, 25.398197899352439 ], [ 119.439517461983939, 25.22123345664096 ], [ 119.143797855387447, 25.034109205514113 ], [ 119.001149599284531, 25.102525796185986 ], [ 119.061904300930479, 24.875899186410862 ], [ 118.787644039911072, 24.700347488005249 ], [ 118.798662073280809, 24.574536741232905 ], [ 118.506372793118629, 24.385729726408044 ], [ 118.478473743812373, 24.420903738944077 ], [ 118.439586300044908, 24.395661773262077 ], [ 118.35573764426988, 24.501112430881221 ], [ 118.205719253975928, 24.430107799484915 ], [ 118.149639733352558, 24.500297511716667 ], [ 118.091403115713248, 24.462257176059765 ], [ 118.231493469962089, 24.286803316963116 ], [ 117.743297989044564, 23.938992409120971 ], [ 117.681959504721689, 23.978707141386309 ], [ 117.393898597358586, 23.786983870160768 ], [ 117.406718700655759, 23.661322876880334 ], [ 117.120229796331785, 23.468885112862097 ], [ 116.977802048745332, 23.426495327710484 ], [ 116.921401219165006, 23.496060757650767 ], [ 116.82628303272287, 23.431577603026625 ], [ 116.929228639899804, 23.231964214279941 ], [ 116.663979965609315, 23.051224351903116 ], [ 116.687328288395022, 22.98622492140484 ], [ 116.329198500663523, 22.739989334642829 ], [ 116.202203850242128, 22.787501333790516 ], [ 115.977097170792504, 22.631119506362836 ], [ 115.672083182501368, 22.607991663565798 ], [ 115.448308650794871, 22.450519983083169 ], [ 115.321264716742732, 22.497005746316049 ], [ 115.235627852881109, 22.600054640527915 ], [ 115.052474826566481, 22.606678041860576 ], [ 115.081111402048236, 22.572383943431362 ], [ 114.858429561078523, 22.413702056215655 ], [ 114.901394652284026, 22.362334643767383 ], [ 115.012615580575257, 22.441688603430165 ], [ 115.226605387704893, 22.184378684914662 ], [ 115.242122156686833, 22.058998466160958 ], [ 115.131162247339148, 21.979879505488952 ], [ 115.203495501619969, 21.785867905402057 ], [ 114.886438042501808, 21.530931464303762 ], [ 114.711355023401666, 21.459134354502098 ], [ 114.585292368350849, 21.504759420590304 ], [ 114.512105776806251, 21.451578907796346 ], [ 114.451057374939424, 21.489482037608397 ], [ 114.381956513659048, 21.466590589661593 ], [ 114.109854118538948, 21.790325149942134 ], [ 114.23162140465152, 21.961644313921283 ], [ 114.188473118848506, 22.012745967793975 ], [ 114.086312979337762, 21.99333488469091 ], [ 114.024737710372051, 22.030996168867105 ], [ 113.805154292939221, 21.870165837139581 ], [ 113.743547153746405, 21.907667145220032 ], [ 113.524737927103246, 21.746267852812821 ], [ 113.463100259601362, 21.783609315374662 ], [ 113.321323423154269, 21.706099109895248 ], [ 113.11058794455478, 21.881870846261947 ], [ 112.824055433985947, 21.695306635742668 ], [ 112.700242522955008, 21.769152626103704 ], [ 112.277596778388201, 21.533074090044877 ], [ 112.150289263897307, 21.575836952420943 ], [ 112.114358973586192, 21.54843350481508 ], [ 111.747564998709109, 21.828029917001828 ], [ 111.586141570260367, 21.704017571591891 ], [ 111.606436653541792, 21.579239835564863 ], [ 111.338658390465014, 21.37206900407547 ], [ 111.220064048136109, 21.50516884873899 ], [ 110.799546892497119, 21.232834435218749 ], [ 110.70178916702541, 21.240735782207466 ], [ 110.631056550234945, 21.184957601629407 ], [ 110.571420164174768, 21.251132516248148 ], [ 110.465456988834745, 21.167319144172595 ], [ 110.405715425397773, 21.233401995680623 ], [ 110.317539387972332, 21.163428679613958 ], [ 110.436973730030758, 21.031327879333446 ], [ 110.296219714934168, 20.919377085568115 ], [ 110.320709810067001, 20.825358226672648 ], [ 109.880832468776717, 20.44390949570186 ], [ 109.5941292346523, 20.725430944464776 ], [ 109.598984657638283, 20.786477633363546 ], [ 109.388253460923863, 21.01592353641351 ], [ 109.429518851489931, 21.335349571584089 ], [ 109.161330287155863, 21.261296334818624 ], [ 108.946230479502049, 21.45933896884803 ], [ 108.719396408959, 21.504240148435201 ], [ 108.651795607845642, 21.477711162647324 ], [ 108.433053008303048, 21.644183123925885 ], [ 108.052868792272704, 21.359265921855709 ], [ 108.022107537895465, 21.39163097585255 ], [ 107.852939277507488, 21.308858277363214 ], [ 107.791291017994851, 21.373465084260644 ], [ 107.658659129714309, 21.349764450426662 ], [ 107.503580859591523, 21.219751621989388 ], [ 107.532694655833595, 21.156971460258305 ], [ 107.105962190687208, 20.825343355319418 ], [ 106.975856760617731, 20.831371402286564 ], [ 106.850360556743809, 20.928964262554445 ], [ 106.799223168446503, 20.88526415893898 ], [ 106.827167026148729, 20.79210181581125 ], [ 106.654224054147107, 20.585149107068432 ], [ 106.649804932138039, 20.493417732662877 ], [ 106.54823158107979, 20.40580204873126 ], [ 106.608636838230751, 20.311334909799186 ], [ 105.80668664365561, 19.699173983164357 ], [ 105.835248946463778, 19.606275350812652 ], [ 105.800747393178199, 19.546235214020541 ], [ 105.91938308647299, 19.296946855749852 ], [ 105.886149359250766, 19.267521069368982 ], [ 105.910857455312481, 19.082841480538178 ], [ 105.745273978928807, 18.935594599172788 ], [ 106.004632759497284, 18.635223162664161 ], [ 106.253759736292579, 18.503049551309473 ], [ 106.511779329744641, 18.232004816847436 ], [ 106.508993343405379, 18.170846715299021 ], [ 106.261777506142181, 17.951298680204602 ] ] ] } },
{ "type": "Feature", "properties": { "Id": 497002, "LABEL_ENG": "Northern Wei", "LABEL_CHN": "北魏", "COMMENT": "新建边界；萧齐与北魏在栅格空间按界线中心分割，互不重叠。", "year": 497, "year_label": "497 CE", "regime": "北魏", "source_kind": "tan_scan_georeferenced_xmap_aligned", "source_title": "齐、魏时期全图（建武四年，497年）", "source_url": "", "source_file": "04-19齐、魏时期全图.jpg", "geometry_origin": "atlas colour field and regime line; conic graticule georeferencing", "confidence": "medium", "crs": "OGC:CRS84 / WGS84 longitude-latitude" }, "geometry": { "type": "Polygon", "coordinates": [ [ [ 105.179133820626191, 32.657652725963246 ], [ 105.030293968742825, 32.661324790061798 ], [ 104.612120062619383, 32.992162597540329 ], [ 104.692656571747776, 33.174194069819293 ], [ 104.886136498817223, 33.353669492617968 ], [ 104.815151684170004, 33.477739286570241 ], [ 105.127166436544741, 33.77668134523978 ], [ 104.908241661597444, 33.99620031220195 ], [ 104.91249182941813, 34.118586685027523 ], [ 104.782442684833256, 34.198018569089683 ], [ 104.479968550036887, 34.234808776006119 ], [ 104.249060189854646, 34.116561936921329 ], [ 103.950866938571636, 34.335677594403862 ], [ 103.835572417001089, 34.27611801907311 ], [ 103.21613940622386, 34.788329625507942 ], [ 103.217426102032434, 34.880149783713023 ], [ 103.141722771752754, 34.942027567780571 ], [ 103.220008325685697, 35.063790060459738 ], [ 103.106929751854338, 35.217805998262634 ], [ 102.85914849856087, 35.418523868745325 ], [ 102.781860707316255, 35.388361496530521 ], [ 102.512866930880421, 35.481376250510252 ], [ 102.397595267111541, 35.573536176825954 ], [ 102.050252796910328, 35.696340801484126 ], [ 101.895369651148314, 35.818633967788642 ], [ 101.818166588548863, 35.757275492726052 ], [ 101.740680994486027, 35.787695558453777 ], [ 101.370500166370377, 36.07693164045952 ], [ 101.408805977278547, 36.138360333074885 ], [ 101.369666785178936, 36.168755229921757 ], [ 101.446425663025892, 36.29160157641941 ], [ 101.289131725825229, 36.443762751356346 ], [ 101.366594441315115, 36.505441677831513 ], [ 101.090591665854646, 36.717861155418149 ], [ 101.207003005946788, 36.810541711993977 ], [ 101.166010861934552, 36.963304051633116 ], [ 101.204935360348699, 36.994186502929608 ], [ 101.201815649435645, 37.269653626849617 ], [ 101.240574354075434, 37.331132805038507 ], [ 100.878842494319201, 37.75681212763061 ], [ 100.918050827656643, 37.787781048356365 ], [ 100.877886775708191, 37.818024981187804 ], [ 100.875490861593221, 37.971057084354356 ], [ 100.69344801285196, 38.13760350417931 ], [ 100.533991997221179, 38.135807116920162 ], [ 100.371820432219039, 38.256233328941534 ], [ 100.170682422808866, 38.314673915270134 ], [ 100.091571144827853, 38.282879072779906 ], [ 99.662158194669175, 38.597122171872741 ], [ 99.371753346599235, 38.867029596513177 ], [ 99.465516168118782, 39.067947786262494 ], [ 99.387003745565053, 39.005130886213976 ], [ 99.263819886378371, 39.06380138171707 ], [ 99.185477950571084, 39.000865142406951 ], [ 99.143994709014891, 39.030570718057149 ], [ 99.064573570929497, 38.99815851349382 ], [ 98.856606302264723, 39.146366498190517 ], [ 98.817545187864724, 39.1147840282255 ], [ 98.69238268505535, 39.20351504480044 ], [ 98.614370582878863, 39.140242029429075 ], [ 98.405140251496903, 39.28774123450269 ], [ 98.131612217475251, 39.096081720674547 ], [ 98.047692799974257, 39.154816121769002 ], [ 97.892971248801359, 39.02747009163744 ], [ 97.724787225401144, 39.144583218524303 ], [ 97.523016557679753, 39.137788690604893 ], [ 97.315532183119615, 39.222409951406078 ], [ 96.947939816930131, 39.269975719730127 ], [ 96.820361198900983, 39.356927079305194 ], [ 96.737303372362007, 39.384261288029819 ], [ 96.699009753447214, 39.352061979968724 ], [ 96.528276408263537, 39.467650700629321 ], [ 96.118497060314084, 39.511224183029725 ], [ 95.675489093203424, 39.459950421370934 ], [ 95.502961156046084, 39.574219588221951 ], [ 95.25977379306957, 39.561976169220131 ], [ 95.146616737862971, 39.464081428297533 ], [ 95.062850385052357, 39.490367064756384 ], [ 94.950054265499773, 39.392305536974547 ], [ 94.713483576172919, 39.318002677672254 ], [ 94.381228208825434, 39.391219760375293 ], [ 94.23227009198807, 39.25968421492469 ], [ 94.188762292496122, 39.287802841983151 ], [ 94.111281301634719, 39.252460668942561 ], [ 93.936894796245042, 39.364690918615651 ], [ 93.815767591629552, 39.357198399466924 ], [ 93.39914871543688, 39.622445751918661 ], [ 92.987012310724424, 39.994459421848262 ], [ 93.024019569478995, 40.027704871195184 ], [ 92.80169327034514, 40.166162527165184 ], [ 92.782770518387323, 40.318551929054863 ], [ 92.648688464317246, 40.401430626870692 ], [ 92.588420877871712, 40.550916446675771 ], [ 92.404771474400974, 40.691600045350185 ], [ 92.39683393553608, 40.752533336567424 ], [ 92.261542652659514, 40.835027046804498 ], [ 91.998066808202722, 41.24631249272808 ], [ 91.85720455433497, 41.358857430124772 ], [ 91.790291578381115, 41.538433126211999 ], [ 91.827531537308602, 41.572006160167987 ], [ 91.814761961498917, 41.663353641109097 ], [ 92.064162025187017, 41.989474994018906 ], [ 92.156325364345321, 42.242238016716016 ], [ 92.051473162950401, 42.696070416990992 ], [ 91.958636642356907, 42.750850369852969 ], [ 91.804997533500767, 43.231862770411553 ], [ 92.168594626285497, 43.550347325621686 ], [ 92.215467256027978, 43.522895060876422 ], [ 92.381973328949584, 43.565262215235933 ], [ 92.475538727461526, 43.510200225277728 ], [ 92.995397237250586, 43.483369709302451 ], [ 93.150849834558315, 43.616276946667199 ], [ 93.379471297719689, 43.507728059486084 ], [ 93.724646677527957, 43.497996771882015 ], [ 93.891964828940615, 43.538574258250293 ], [ 94.066309812260911, 43.517930369247935 ], [ 94.273286678690226, 43.591000137259996 ], [ 95.520356957644196, 43.59338374532318 ], [ 95.646048788898909, 43.629866097297594 ], [ 95.73714332046805, 43.57266532906533 ], [ 96.213125847175533, 43.532022899559124 ], [ 96.484243096635424, 43.359149946704392 ], [ 96.962727233827394, 43.254849129246821 ], [ 97.173883672742207, 43.29305896821954 ], [ 97.645258778251375, 43.278148413642754 ], [ 98.065216054633055, 43.413360169777363 ], [ 98.15241301246634, 43.385198313877055 ], [ 98.321798402032314, 43.42047402033387 ], [ 98.83787491821019, 43.372111102150384 ], [ 98.926061467647983, 43.312877290746869 ], [ 99.266599977809179, 43.350759966210305 ], [ 99.652332476678438, 43.327365613175147 ], [ 99.863154770957138, 43.422715159332185 ], [ 99.949644580132755, 43.393442526120353 ], [ 100.033441258342748, 43.455923474341787 ], [ 100.502366948208788, 43.553832628417368 ], [ 100.845891275882437, 43.526672631775085 ], [ 101.53119054507485, 43.592273561850504 ], [ 102.088899249094894, 43.501551278381754 ], [ 102.217492762824619, 43.532101199121001 ], [ 102.38882218303678, 43.501231691701364 ], [ 102.64684603091888, 43.622881736181284 ], [ 103.075593090211811, 43.589922641801422 ], [ 103.202856435865129, 43.497142412137805 ], [ 103.373669570095245, 43.46507540048546 ], [ 103.459894598823752, 43.494872864613654 ], [ 103.840193848313035, 43.276360394746177 ], [ 104.136509161319935, 43.180503014744687 ], [ 104.902822798711838, 43.136583613056672 ], [ 105.113310326751701, 43.070949065467829 ], [ 105.372892612329863, 43.156969121630326 ], [ 105.456700016374498, 43.124352475436027 ], [ 105.585972210872001, 43.151808921438118 ], [ 106.027060655792241, 43.415783490381187 ], [ 106.333585278606193, 43.529399913582068 ], [ 106.633319429354913, 43.520037548601991 ], [ 106.851424466700109, 43.574108176516788 ], [ 106.977856371476861, 43.539128932603475 ], [ 107.451028459778158, 43.552540305390423 ], [ 107.584151284481976, 43.608712564211274 ], [ 108.055335205036044, 43.589530829283703 ], [ 108.264158404925411, 43.519189450404781 ], [ 109.290101762665884, 43.470355888113204 ], [ 109.424487044606295, 43.524780559331376 ], [ 109.769639757310571, 43.537034243691153 ], [ 109.848508941302569, 43.471301201541479 ], [ 110.421094724091361, 43.592044996797824 ], [ 110.984201712944142, 43.618988037894184 ], [ 111.299061570332213, 43.721660321237351 ], [ 111.337909647361357, 43.688374593534746 ], [ 111.478240191540621, 43.771306972839866 ], [ 111.517031822577849, 43.737971985969722 ], [ 111.841512654500221, 43.90038186912976 ], [ 112.768630545867751, 44.017884223417482 ], [ 113.202323828258827, 44.01520395089841 ], [ 113.626094352213372, 43.950382547388571 ], [ 114.326552431156244, 43.983797086985135 ], [ 114.658189265836924, 43.892912001469526 ], [ 115.694323279940079, 43.858255214816936 ], [ 115.94431928196208, 43.802928361870229 ], [ 116.096832272530023, 43.695071048493134 ], [ 116.442747614429322, 43.366297497595795 ], [ 116.430588028621059, 43.305702519278881 ], [ 116.285633554753247, 43.22778876922969 ], [ 116.273629263544578, 43.167180265531599 ], [ 116.346013517408181, 43.097944178430154 ], [ 116.243706578078459, 43.015654518935705 ], [ 116.346040520707163, 42.881508371577596 ], [ 116.286047855818822, 42.794917256348086 ], [ 116.632922752798038, 42.495974766514664 ], [ 116.841925679638152, 42.473755122398302 ], [ 117.067488685793577, 42.325600208806009 ], [ 117.311173200879111, 42.267856088387333 ], [ 117.493603945143462, 42.123618279797682 ], [ 117.825841415728064, 41.791461334518331 ], [ 117.777995906983421, 41.765990070272792 ], [ 117.782399857255783, 41.688019649491935 ], [ 117.954054460287608, 41.699115050487009 ], [ 118.213450585735075, 41.436081089398954 ], [ 118.234584139958272, 41.34054393138338 ], [ 118.180263169434355, 41.284997917949084 ], [ 118.249014778068471, 41.214789578192722 ], [ 118.201396422533747, 41.189465895399266 ], [ 118.205321287163457, 41.111482596362876 ], [ 118.532223286923397, 41.258189222847776 ], [ 119.303030340475857, 41.131115954309379 ], [ 119.784023109085012, 41.379728441327089 ], [ 119.858642708457452, 41.338853390883372 ], [ 120.189782626388507, 41.481570990644968 ], [ 120.290251608323175, 41.374749267567282 ], [ 120.678695752831871, 41.57097721531072 ], [ 120.819521037059189, 41.458134453553313 ], [ 120.916898951236817, 41.506918730521676 ], [ 120.950080998041642, 41.471142557518078 ], [ 120.941263536749545, 41.519103970627498 ], [ 121.307698345013478, 41.701361054741199 ], [ 121.578704172421297, 41.600282355333491 ], [ 121.88998608229528, 41.258575027166373 ], [ 120.926492269070351, 40.804621025050082 ], [ 120.799481332624111, 40.635526867799584 ], [ 120.599742161051964, 40.507632798018662 ], [ 120.506848070862873, 40.302565376118764 ], [ 119.871505067214258, 40.000130946722109 ], [ 119.79821936114493, 40.041013384074517 ], [ 119.544999707545003, 39.934666984816005 ], [ 119.248179463139167, 39.724876685210177 ], [ 119.314518751877657, 39.654134863659039 ], [ 119.126742431005695, 39.554235391930035 ], [ 119.113053733476079, 39.493894331853113 ], [ 118.576430496681283, 39.205164315597116 ], [ 118.263659304779594, 39.274971081328729 ], [ 118.273901108118622, 39.22719904745189 ], [ 118.088552934526518, 39.125842858751071 ], [ 118.122013167960773, 39.090766259762432 ], [ 117.443712380957649, 38.76906894612388 ], [ 117.498616923084342, 38.638734923797344 ], [ 117.665897032056122, 38.464014028374734 ], [ 117.653549708182339, 38.403529447281031 ], [ 117.880085924049297, 38.12835498379512 ], [ 117.788928391075487, 38.077435143831835 ], [ 117.822070566835336, 38.042434334914162 ], [ 117.724888717808255, 37.961235070984785 ], [ 117.780738617301864, 37.938991791210796 ], [ 117.962836365687536, 38.040779570527803 ], [ 118.242789378431326, 37.742633491721122 ], [ 118.184661215262992, 37.656874169100163 ], [ 118.282925215134981, 37.551547179146667 ], [ 118.072660233540333, 37.407298482490532 ], [ 118.280246556741545, 37.44334914273108 ], [ 118.507305275950145, 37.569673142992201 ], [ 118.624435701420666, 37.554691360529162 ], [ 118.890511154797835, 37.302956840281524 ], [ 119.24033921527996, 37.256661543794323 ], [ 119.304590106843307, 37.185924132958917 ], [ 119.587403559449839, 37.28743798351752 ], [ 119.498046819790659, 37.423893544814959 ], [ 119.72700684163425, 37.548077885130553 ], [ 120.030872033647086, 37.817057959573418 ], [ 120.377608413060329, 38.001766490478033 ], [ 120.712542354010964, 38.04735034579403 ], [ 121.277695494827498, 37.715243695898977 ], [ 121.791025581977053, 37.66879912763514 ], [ 121.884254771619212, 37.716891519167646 ], [ 122.303728662847277, 37.620332587697462 ], [ 122.565312770608699, 37.313176357173717 ], [ 122.541404215363599, 37.223246117331513 ], [ 122.448361222598081, 37.175625348879862 ], [ 122.431542482351759, 36.959585824345126 ], [ 122.084636245352726, 36.780369619966265 ], [ 121.923254381415092, 36.930527558785656 ], [ 121.753970337707131, 36.894384116864984 ], [ 121.385960829270402, 36.70124828929049 ], [ 121.316547129892768, 36.742953954229762 ], [ 120.957612368175049, 36.57864330292719 ], [ 120.832978112795303, 36.721710979091412 ], [ 120.764416502462609, 36.685085695120065 ], [ 120.79563420880325, 36.649346761093497 ], [ 120.704340129454124, 36.600478417875067 ], [ 120.766734683559037, 36.529022168813427 ], [ 120.713960667863049, 36.474501128597183 ], [ 120.745117896432333, 36.438774463465762 ], [ 120.639793169413849, 36.329692965682199 ], [ 120.687714211893152, 36.198096161506996 ], [ 120.302983455070773, 35.989636769167092 ], [ 120.085960725993942, 36.160784094065676 ], [ 120.141629267127172, 36.059513435822964 ], [ 119.774684851483713, 35.83166799061415 ], [ 119.778917320526133, 35.675629861845309 ], [ 119.63793018140538, 35.5710809558405 ], [ 119.655805182407704, 35.475333422920485 ], [ 119.419689541224926, 35.290719577240182 ], [ 119.444359449755808, 35.225156945957465 ], [ 118.633060935708187, 34.792110476140493 ], [ 118.541918739789779, 34.819710246249414 ], [ 118.442294577265841, 34.52266034233115 ], [ 118.354849366817206, 34.472134123209173 ], [ 118.330361855210128, 34.35129602920081 ], [ 118.524808463614832, 33.984370329273645 ], [ 118.43789035945079, 33.933902008773416 ], [ 118.810232381466889, 33.511417083678253 ], [ 118.791571689899015, 33.420856830593848 ], [ 118.661884694560626, 33.345412087271598 ], [ 118.692740891704304, 33.310191735981221 ], [ 118.369634487471046, 33.121066091919829 ], [ 118.264774887969537, 33.16603452654283 ], [ 118.184849375980477, 33.145602160929471 ], [ 118.122799432904387, 33.215779846692158 ], [ 117.994053378817682, 33.139634178038165 ], [ 117.894831054618351, 33.214513311357479 ], [ 117.308310038827443, 32.917428657316535 ], [ 117.108979083961984, 33.065996319476639 ], [ 117.045165714974885, 33.027411914470207 ], [ 117.107988545156928, 32.957781454316191 ], [ 116.789939466020428, 32.764526636036436 ], [ 116.695484088758874, 32.868715496233435 ], [ 116.189419733419001, 32.557408315762643 ], [ 115.879514694374251, 32.500320858232172 ], [ 115.67864484432792, 32.646552523985946 ], [ 115.511268459113978, 32.541619045299115 ], [ 115.309648680415222, 32.687243548012816 ], [ 115.311015872741606, 32.579031486633824 ], [ 114.957131034449702, 32.354708258933655 ], [ 114.851452072212794, 32.396741707580915 ], [ 114.768488736017403, 32.343738904376423 ], [ 114.704183967158585, 32.4121530964062 ], [ 114.501735016148018, 32.309665808979076 ], [ 114.00832103056986, 32.513319080018732 ], [ 113.698316568771801, 32.836061061702907 ], [ 113.761300788207635, 33.014947159968912 ], [ 114.056681282109096, 33.232994113241745 ], [ 114.007496096921159, 33.284024783266503 ], [ 113.757886510001825, 33.123129005476358 ], [ 113.477683045769098, 33.411363105242586 ], [ 113.532075397393911, 33.529541166041483 ], [ 113.503219301864704, 33.593835308661468 ], [ 113.711940189609763, 33.728379508635598 ], [ 113.529405442585428, 33.914888072625359 ], [ 113.466663916592495, 33.874469439557231 ], [ 113.491375741614945, 33.779771890559729 ], [ 113.178902150270332, 33.577267082808433 ], [ 113.074852294601328, 33.648176985814487 ], [ 112.908826831262445, 33.539713026448794 ], [ 112.741642086566856, 33.708196653260288 ], [ 112.666648982317838, 33.714648195080329 ], [ 112.542394946219375, 33.632910880648282 ], [ 112.437723614670787, 33.703283721476097 ], [ 112.23497515387794, 33.597056502097857 ], [ 112.133844503720411, 33.697625033342234 ], [ 112.051354805249815, 33.642791659067953 ], [ 112.017578044251678, 33.676273618200455 ], [ 111.989560205621075, 33.601630585647356 ], [ 112.087015573062303, 33.470722676807512 ], [ 111.779221346605866, 33.264699034735827 ], [ 111.467629514639881, 33.5040826958829 ], [ 111.355275460664529, 33.512585149921748 ], [ 111.273496402057276, 33.457234848114638 ], [ 111.167967249876099, 33.526528797022422 ], [ 111.052201960301559, 33.50427162970702 ], [ 110.949738201741511, 33.603866133150277 ], [ 110.874711773860497, 33.609231696687687 ], [ 110.546024546782689, 33.355738260103337 ], [ 110.511754868886982, 33.388805623175259 ], [ 110.390171802515525, 33.3049256939738 ], [ 110.28715508929136, 33.403969056115471 ], [ 110.050584434796491, 33.296673195451632 ], [ 109.722243274301576, 33.609111311590951 ], [ 109.762664564533239, 33.637303464527804 ], [ 109.693228656360176, 33.702991021089488 ], [ 109.739420858435338, 33.792232916684654 ], [ 109.690093974395822, 33.872013673261733 ], [ 109.611919267388402, 33.846091738136593 ], [ 109.280966866659071, 33.957813849570158 ], [ 109.089690030626343, 33.93807484997231 ], [ 108.407784492532727, 33.453309660800713 ], [ 108.001679533852069, 33.82605791587747 ], [ 107.886061010785241, 34.06146893760787 ], [ 107.646640252272363, 33.888475049040878 ], [ 107.49977051475058, 33.956276695188805 ], [ 107.440102808053794, 33.912885652618172 ], [ 107.471779932724473, 33.819557323460018 ], [ 107.056239460494922, 33.515127469395708 ], [ 106.941707747959512, 33.489038093680747 ], [ 106.794975290782702, 33.556004384395024 ], [ 106.530125997559125, 33.535171042818874 ], [ 106.471282395887911, 33.491316360281417 ], [ 106.500603276344364, 33.337081236752482 ], [ 106.013469209204871, 32.970658480539086 ], [ 105.905702631775327, 33.065950761331663 ], [ 105.59616065440359, 32.830160900123005 ], [ 105.486834417124484, 32.894494879302442 ], [ 105.179133820626191, 32.657652725963246 ] ] ] } }
]
}
