{"type":"FeatureCollection","name":"史图馆视频地理陆地背景","metadata":{"coordinate_system":"WGS84","registration_model":"albers-105-25-47-affine","political_evidence":false},"features":[{"type":"Feature","properties":{"kind":"geographic-land","source_year":308},"geometry":{"type":"MultiPolygon","coordinates":[[[[80.40725830790592,9.57741500578041],[80.43851163308409,9.437051371155686],[80.53182698510797,9.413456693951833],[80.5732153391189,9.226032544447582],[80.67661458403589,9.15535321694132],[80.69715965377061,9.061489585432161],[80.8620577288361,8.908083053961944],[80.90337743095861,8.919540499068573],[80.95410542775303,8.68430052977421],[81.04669872398533,8.660042579059303],[81.13712580182947,8.235516196577207],[81.22931980305475,8.210993558869982],[81.2790709029432,7.974531079422134],[81.37102685560065,7.949815175297924],[81.38091303204615,7.902459265108283],[81.48262853137399,7.830232957735473],[81.61952865591095,7.165172720216066],[81.54775098098015,7.095061502285535],[81.55749334371578,7.047427906912919],[79.73294981796779,6.519698262200133],[79.57555210411239,7.23166304509673],[79.64621958061997,7.303382793875752],[79.46589000904595,8.105819036210747],[79.50677930180005,8.118004121856634],[79.52635986596707,8.224289064417574],[79.59760315325472,8.295603478240533],[79.56562933392128,8.436635543279014],[79.63702840728662,8.507823651325117],[79.6050439116772,8.648686123536889],[79.6461411108327,8.660763824730944],[79.66594314515297,8.766661606475015],[79.73761016652487,8.837622226990588],[79.68431157556111,9.0719089889378],[79.72556955043095,9.083917726760806],[79.74551878834835,9.189524991977395],[79.81750147467454,9.260237576342444],[79.80685260171934,9.307014210846608],[79.87894792327707,9.377625837656083],[79.84701791319043,9.517836140119044],[80.30330608918207,9.647594347439043],[80.36574942515253,9.565766339292862],[80.40725830790592,9.57741500578041]]],[[[121.46442103419758,13.02874143361488],[121.5947624873672,13.004075170679572],[121.48720944318755,12.302568728298155],[121.39378293961188,12.272124885807251],[121.38670443692575,12.225242543357098],[121.08455693455689,12.282056550012632],[121.05524071477322,12.383861194973907],[121.01200844023971,12.391875344999896],[121.03280897472791,12.532442963349702],[120.95312521518856,12.595249316319055],[120.92360057298474,12.696837568791988],[120.88023346678874,12.704775461425807],[120.90092280222545,12.845134203741262],[120.82093134557377,12.907718838616496],[120.79119645741235,13.009092865466776],[120.74769383476703,13.016954527200026],[120.71785965235973,13.11824534798051],[120.58718410960536,13.141649162893152],[120.62119798321957,13.37508122091366],[121.36249728148711,13.23985059904911],[121.3553686712184,13.193210977501518],[121.43526029598594,13.13025637135418],[121.46442103419758,13.02874143361488]]],[[[121.65304504001746,18.209404014503704],[122.06379457261443,18.135885267618676],[122.12504482431953,18.218539673761768],[122.3531386081238,18.17682171549145],[122.31356742118814,17.94947169445794],[122.21470093369207,17.92069998805013],[122.15993185090335,17.601897191663152],[122.24279073526552,17.539616528095824],[122.21932651114416,17.40281740594231],[122.3019851948867,17.340429926954872],[122.33149488528366,17.240754997846814],[122.46699617353055,17.215391630184442],[122.4433040076584,17.078442779865043],[122.52555986254072,17.015772348735513],[122.4388814997892,16.512754127440637],[122.34137377405438,16.483918599202834],[122.31801978821134,16.34646844265506],[122.22070453085759,16.317487901429654],[122.18214836704517,16.088120057579317],[122.08511618751022,16.058966133303546],[122.07747106595922,16.013046135520163],[121.85408705105954,16.05454674852364],[121.79435069046835,15.970890607382687],[121.69753966342017,15.94132763584086],[121.61580441790416,15.434983809155995],[121.51219883903326,15.359051017651222],[121.46825898454361,15.082148679136193],[121.54952162991151,15.019708503681628],[121.57909702363949,14.919147966742575],[121.6233234217876,14.910973010905323],[121.60127139648942,14.772287412446387],[121.68221433860072,14.709635320525813],[121.64543416866387,14.478222686008857],[121.7261246270891,14.415438833148283],[121.70404088931193,14.276427381545993],[121.78454223238329,14.213527993935857],[121.71836111529245,13.795783935105224],[121.58707942917687,13.820521324211283],[121.53605822801599,13.782244311311356],[121.51435493534207,13.642730628495823],[121.419750236732,13.612532567545038],[121.41257175708597,13.565989395797724],[121.10665195971993,13.622474254159059],[121.12781635962017,13.762097176398694],[121.09107989025681,13.816605147886062],[120.69655319115829,13.887575603604757],[120.74488589858255,14.212963530678289],[120.83983324586582,14.243754658912911],[120.84680598321737,14.290177510936966],[121.15479525229699,14.23474253091853],[121.18452723252695,14.133904481304631],[121.40409938685976,14.093585590693595],[121.45522289408854,14.131873125574662],[121.47694862243445,14.27104634962226],[121.39622056525712,14.333661513463424],[121.3666347184066,14.434463297675448],[121.05817258412986,14.49053880302166],[121.06525789110184,14.53688661432652],[120.98408168362096,14.599060685229585],[120.95402605484838,14.699595037886246],[120.6445688981596,14.754235364864991],[120.5934392890775,14.715627241999515],[120.57279013188872,14.576570523448309],[120.3519014913755,14.61483202051754],[120.32123632270167,14.715153852245745],[120.18849286410673,14.737802496290655],[120.1576353422573,14.838008426367207],[120.113330255567,14.845497396195745],[120.14684596283341,15.077053619277763],[120.06470753443888,15.138262694922714],[120.08479076230783,15.277037198365885],[120.00245798080277,15.338131438205696],[120.03588560752243,15.569160271645098],[119.95329191381761,15.630124045203978],[119.9800097132876,15.814718238674747],[119.90384788907245,15.92167404680877],[119.85906002679151,15.929004061767113],[119.8923580041864,16.15941845231381],[120.07186296591038,16.129941054574093],[120.06511292682427,16.083885597612213],[120.14800428067406,16.02295931682718],[120.17922501362393,15.923341971522195],[120.31349258784257,15.900837943071817],[120.37197880781402,15.985437412024309],[120.4684427099398,16.01633246906743],[120.48923985414119,16.154425331794457],[120.40644516892667,16.21560776799181],[120.44106638064767,16.445512062092323],[120.35800734090964,16.506567974042603],[120.39261815309624,16.736172581184793],[120.48979820312083,16.766936271733794],[120.58112062123256,17.36252286215437],[120.49739260024569,17.42343814888428],[120.60360246491483,18.10843743848761],[120.70935820829904,18.184372093752543],[120.75257407669172,18.457615665396926],[120.890115012035,18.434575703195613],[121.04229533378049,18.502324921885062],[121.36310839384598,18.44733843335968],[121.39388035721093,18.348445142300204],[121.62257365067123,18.30843806747427],[121.65304504001746,18.209404014503704]]],[[[58.674815241485035,23.04725823083149],[58.84844859343278,22.723780582698744],[58.95723448866523,22.723730165601346],[59.00036079335274,22.642713771787463],[59.13054014527078,22.601960834379987],[59.217742821873095,22.642187419646984],[59.324761584967334,22.439244593688535],[59.17078803365687,22.115484834284402],[59.19212926801025,22.074848741938144],[59.10546239420335,22.034518080967473],[59.083521863325586,21.973694476007108],[58.99699424005467,21.933258656913825],[58.12669373518877,23.549873139065753],[58.214350234878125,23.590793220601828],[58.302357909410254,23.530744338870342],[58.54381525646763,23.087383805516176],[58.674815241485035,23.04725823083149]]],[[[68.39806048147416,23.792897517815412],[68.58206589383752,23.85732444078736],[68.66309742638474,23.789132825118834],[68.9855845788217,23.90086734320408],[69.06635454521621,23.832381102610167],[69.29707856813191,23.91141570541647],[69.41717114796076,23.61567916262936],[69.52637302425988,23.604782501718635],[69.60648116448743,23.535821509881654],[70.39156046514658,23.79873203393871],[70.50799312429412,23.50167451876291],[69.67918359130117,23.223746319738062],[69.6212614559513,23.107698909217973],[69.63816822019726,23.065309383578068],[69.56348383512639,22.991573029046428],[69.19779893545929,22.86539602357481],[69.07230443819486,22.91831358460436],[69.02665904450988,22.9023974609258],[68.94666755292387,22.971072251213723],[68.80976534339213,22.92310837864307],[68.72959635203512,22.991613981403347],[68.68397390255318,22.975554174233654],[68.64930935144447,23.060042363982458],[68.52324243545355,23.11227216555731],[68.50581948747786,23.154474302623512],[68.39703395482096,23.164342486694398],[68.31635300452604,23.23247734204572],[68.27068407955964,23.216253188280984],[68.07667245584955,23.679357401575018],[68.15071832303249,23.753957689329546],[68.133003743122,23.796006195970158],[68.31682947804697,23.86088753050704],[68.39806048147416,23.792897517815412]]],[[[121.63734741575797,23.952653679067343],[121.46939126834918,23.01668531408048],[121.35759363819874,22.942994253536558],[121.32622390489189,22.76426197048836],[121.22261317253857,22.735068619957616],[121.19932041491776,22.600901974443314],[121.09593022036755,22.571567034520694],[121.072859391647,22.437293802459664],[120.95444841614,22.31823831934616],[120.91647336574154,22.09415276351441],[120.67837553372925,22.13193436019419],[120.68584579575247,22.1767782083476],[120.59794238856179,22.236582128064573],[120.56508387686272,22.333694507576762],[120.51733023726807,22.341128005466544],[120.48435176561759,22.438178184919913],[120.3408896772609,22.460294083942184],[120.36291611838564,22.594713216856643],[120.27441482450415,22.654155494915237],[120.29639134344215,22.7884953264979],[120.20766399589775,22.847840668742826],[120.39233262979894,23.964652513368915],[120.49706229038769,23.99453329481081],[120.51968441438491,24.128211607075265],[120.62464246412746,24.157952051253663],[120.6627612680329,24.38055043756913],[120.76805587207068,24.410126937861524],[120.79117822155904,24.543567652526693],[120.89670287185055,24.573003467627387],[120.92005543358599,24.70634736363467],[121.0258107479888,24.735642317219344],[121.06515629504536,24.95768808496271],[121.32651173285201,25.008133071803968],[121.39170387745013,25.089115092165926],[121.49805834660337,25.11791545819464],[121.50617730081396,25.16225079403234],[121.75187129782007,25.12298040323223],[121.78447384067667,25.02641347029187],[121.93162127418816,25.00253261286409],[121.75874102848967,24.070266868964648],[121.63734741575797,23.952653679067343]]],[[[136.6538073916801,55.45222703900982],[136.48789814491116,55.43774932813664],[136.46474924947043,55.39286607870416],[136.29904048662968,55.37819637148551],[136.18440547360103,55.15391312384224],[136.01939034064827,55.1389797181391],[135.95136738242337,55.00453286690008],[135.88035949557968,55.01937802606544],[135.76431072038,54.94456980192842],[135.5999435422548,54.92922223509767],[135.5776097295473,54.88441489301225],[135.41344496381095,54.86887917332314],[135.39126471321276,54.82406892170555],[135.20527596347577,54.76353266621241],[135.1613153808443,54.67394945439314],[135.28083379672813,54.60023123325163],[135.3074674425855,54.496306025047645],[136.08178785893128,54.334946224799545],[136.19709441710984,54.40912861698224],[136.40775003382726,54.36430842324146],[136.52349118500044,54.43826668216887],[136.87418993965304,54.36266339558766],[136.71366145492644,54.05209252801233],[136.83020832274752,53.977580500043494],[136.67085963184462,53.667928208795665],[136.71750499177764,53.6087224045773],[136.85597344977157,53.578598497465705],[136.97080678107682,53.65175715684609],[137.10924828668033,53.6213963639253],[137.20141849719633,53.650275653829965],[137.27060680513316,53.782656732648256],[137.61681156460816,53.70578709983429],[137.47745500942725,53.44159824576858],[137.52318735870483,53.38225490446248],[137.72952786765927,53.33602590750219],[137.89028643236804,53.348960856138774],[138.00588339390075,53.42121919868465],[138.48634288998497,53.31141371794814],[138.57867797007606,53.33940272577912],[138.94013498897118,53.99758638211966],[139.21644128757475,53.933060986181054],[139.56637416959282,53.99962486252866],[139.59117208963292,54.04349695399726],[140.07351076277925,53.928209936681974],[140.09205618315306,53.82416393957851],[140.29788464051572,53.77434655951215],[140.24756239271235,53.687029045489524],[140.33409529313118,53.5665368520374],[140.60710205094017,53.499764380392904],[140.6246568913451,53.39600372586701],[140.9645342054311,53.31193828979753],[140.98145858041332,53.20828538014018],[141.45498062642525,53.08947141319245],[141.1742545175155,52.61426963499716],[141.28298399685298,52.53732490306854],[141.10619049812877,52.235777729548815],[141.14773405446863,52.175921419423574],[141.34752031654898,52.12532146888704],[141.36352604053843,52.02249619961177],[141.42994176085531,52.0055800344151],[141.1043240212246,51.4481753492959],[140.94768669159038,51.43872232150311],[140.53201150143326,50.71130514814253],[140.63834277769087,50.63574293398369],[140.4695637922611,50.33704274057633],[140.5753616232478,50.26168483944289],[140.50337357247372,50.13386983462367],[140.60880631843793,50.05857236410969],[140.56088792795222,49.97346117217209],[140.64204526651056,49.8556755683805],[140.52274079271032,49.64319639866134],[140.62737036604014,49.5680808429976],[140.55603469173158,49.440759022778195],[140.66030710538212,49.3656976295638],[140.21405532643283,48.56099812697761],[140.31734067821014,48.48649149219132],[140.10932962339348,48.106174497157966],[139.9605729638497,48.09588185738485],[139.89204945371642,47.96912093643444],[139.7436298268705,47.958614567544586],[139.6304794134941,47.74732145602459],[139.48258964200556,47.736560655468665],[139.41532787632192,47.609769405958865],[139.26777433493893,47.5987974882094],[139.02434600476215,47.133958832772606],[138.87789118958008,47.12261392437602],[138.76881402608697,46.911365248762586],[138.62288178458232,46.89977285014426],[138.1740243325112,46.012987325365636],[138.0301012395807,46.00083563827349],[137.88368708713833,45.705388158607036],[137.74045805137308,45.69295801531509],[137.63709866011564,45.481906034189954],[137.5760164225149,45.49669694108869],[137.47387247869597,45.42701609270445],[137.33129509518128,45.41418698015714],[137.22959660274086,45.20301951318934],[137.08752563484222,45.18995508116514],[137.02707409738824,45.06322676969734],[136.88532770275444,45.049965539255254],[136.7855132903112,44.838704138964175],[136.6442705705249,44.82521051664258],[136.5455068834526,44.61391107821922],[136.40476594864387,44.60018669509453],[136.26811847118333,44.30432464268167],[136.20777959239487,44.318481802646424],[136.1087158566247,44.24805912300734],[135.9687963664155,44.23391335322211],[135.91118488655385,44.10704214075181],[135.77158661479172,44.09270501476463],[135.56307664767743,43.62744725771346],[135.4244977517788,43.61278103581598],[135.368367629289,43.48587304961597],[135.23010686761558,43.47101837177015],[135.13743488010428,43.25944727015046],[135.0777630560849,43.27308602938454],[134.98128232449625,43.20204384045531],[134.84365667909316,43.18681473817823],[134.82538257172234,43.14447197321667],[134.68790221949763,43.12909029874154],[134.63346778338206,43.002019344761095],[134.57391615794916,43.015434574457466],[134.47828853887378,42.94408107805763],[134.34127118407963,42.92836221785615],[134.32336206694487,42.885975793830426],[134.1864909392131,42.87010550809566],[134.1331470934624,42.74290410761366],[133.9547955060788,42.78240874432269],[133.8601006156558,42.710661869107646],[133.72367036506708,42.69433914696948],[133.70618653642072,42.65189254147863],[133.56990396183843,42.635419619248644],[133.55252585441366,42.5929582032319],[133.37423156699393,42.63170188308113],[133.28032029808247,42.55957870202493],[132.38663049869035,42.74923821244889],[132.4704338392632,42.96234193706276],[132.42731017170607,43.01745703386542],[131.88686598428046,43.128710738669916],[131.81025610795396,43.09822754476974],[131.76100547739958,42.97008952925636],[131.62459201064158,42.95168728553596],[131.55954336244525,42.78080154875235],[131.3913077572848,42.6767456743028],[131.3270658101717,42.50583909303369],[131.2354009776373,42.43235455340731],[130.99656713257724,42.47993914071756],[130.9210326656433,42.4490040908667],[130.82676804988304,42.192430827083534],[130.75160890218245,42.16141807701794],[130.57295104262874,42.196499049091365],[130.42290903535087,42.13415585567876],[130.3921423554495,42.048558683499266],[130.25783730933958,42.028843536752106],[130.22731168131375,41.943223960024405],[130.09324831156005,41.92335064237187],[130.03274875165252,41.75207125631318],[129.8990939790723,41.732013350834045],[129.85415707249948,41.603524940245244],[129.78002922871414,41.57200989280144],[129.70573902734236,41.35785133501829],[129.79403992159496,41.249643695558554],[129.85295963733753,41.23833029681809],[129.74925125749948,40.93870207043238],[129.7931487869803,40.884618107855395],[129.7342091817914,40.71344539435174],[129.67569379189726,40.72470008872173],[129.5879217146625,40.65031834133481],[129.52943437970256,40.66150870734041],[129.3834275319234,40.598163113922176],[129.36896360919647,40.55533852131295],[129.2376732248549,40.5346636611862],[129.1803084134311,40.363316485870236],[128.74572333180288,40.17174679922597],[128.71772038611218,40.0859989055891],[128.2859724193023,39.8929842640603],[128.11168230575169,39.92475686800346],[127.85648092972077,39.698610034114346],[127.74048739374774,39.71943942661675],[127.59788668398423,39.654222028208245],[127.57140604498339,39.56827635227203],[127.67393019969366,39.50463622250735],[127.55509213359748,39.11798611725595],[127.59949610220264,39.06471303587313],[127.77199740025463,39.03362991639199],[127.94841693732415,38.820176230438555],[128.0629613562897,38.79917786427449],[128.09343671330436,38.70284481805034],[128.26489953583416,38.671122378200366],[128.29506420324861,38.574748013365436],[128.46614934877357,38.54276422577165],[128.43907004288195,38.45704725361529],[128.52578433832338,38.34992942921575],[128.51223772722253,38.30708031430093],[128.6122525550781,38.24275790326765],[128.64180342259652,38.14631828194415],[128.69847560852483,38.13553252984135],[128.65770375684747,38.007043741014094],[128.75719913993058,37.94261496054548],[128.78644895958072,37.84614904664784],[128.84287642196722,37.835301142727026],[128.8719761915644,37.73881761902384],[128.92831174253476,37.72793273730531],[129.01350599917293,37.620509596473966],[129.12594520576465,37.59859279674396],[129.1545962853034,37.502048585256624],[129.2107162957098,37.491041236877415],[129.16942732556222,37.3627250226766],[129.4358924833284,37.08256764050228],[129.46396094927886,36.98595462459579],[129.51965900183353,36.97481294527439],[129.478131858674,36.8465926484578],[129.57543651546928,36.781540761097354],[129.47878064125905,36.48236668978681],[129.57562645072676,36.417309400651746],[129.45207278388122,36.03260073945908],[129.49340840401416,35.978711349806694],[129.71320395252812,35.93393912060886],[129.6170691767756,35.63478347789363],[129.65808068585906,35.58083058421295],[129.6034244496745,35.40984469424019],[129.4806908010018,35.389425444418734],[129.39957377117346,35.13278789790638],[129.27732562315725,35.112166444398774],[129.23717496494515,34.983771229779144],[129.11520064337,34.962989376444916],[129.1019158548675,34.92017198452058],[128.99329078837917,34.9420882720507],[128.9125950756786,34.86733545718629],[128.79088693031724,34.84623544442077],[128.71256341490547,34.58906256255651],[128.1833305149879,34.73895301878257],[128.11631050952306,34.706597910849574],[128.07824970722916,34.577801097988065],[127.91557941667322,34.609311724952676],[127.84877867164914,34.57680948204803],[127.81121433937955,34.44791791413409],[127.64870519702576,34.47908265538798],[127.5821236012176,34.446433785934154],[127.54505323432099,34.31744797441479],[127.2744070721167,34.368695780596155],[127.2324131231411,34.42190206997034],[127.12397391680109,34.44219738800681],[126.97932144591873,34.33324642854472],[126.94328078237726,34.20407017813057],[126.87721992240797,34.171036074090566],[126.55249568808006,34.2307192109677],[126.52187086230838,34.32678618021382],[126.25055128995338,34.375796568509266],[126.35586494794052,34.76379261997161],[126.31304449246348,34.816668827863474],[126.36012100608328,34.989054917398434],[126.4266500907678,35.02234274335575],[126.69021772422946,35.96965947933062],[126.59155677379766,36.0325068073325],[126.56026983007129,36.1284732642424],[126.5047792758536,36.13832848654975],[126.47334222577364,36.234269810698194],[126.41776491763956,36.244086661045536],[126.38617710583736,36.34000304004862],[126.33051286229157,36.349781442304874],[126.36653001938136,36.47896999332981],[126.32276609521475,36.53180414018211],[126.1552922971823,36.56098126614091],[126.21506258968942,36.77635901463424],[126.27104992184961,36.76663200042493],[126.35114427669059,36.84300059244152],[126.47530763890195,36.866450736958],[126.48746175899926,36.909496768973796],[126.61177400112595,36.932814571018895],[126.69775108559969,37.23401533819795],[126.65378406252015,37.28695721073483],[126.4847823721549,37.316564566769664],[126.49701345287001,37.35960836184109],[126.39639709205483,37.422287486066324],[126.36429417484976,37.51818280708156],[126.19466828074519,37.5474103729952],[126.16225845361866,37.64325606825497],[126.0489516516499,37.662589233066285],[126.01630893740672,37.75839938978216],[125.78922073987158,37.79671136888176],[125.7205435302275,37.76311094091747],[125.68501586810274,37.63375682840517],[125.06055582411418,37.73656172445329],[125.09506641059684,37.86608628640835],[125.04961985003906,37.91847670676625],[124.87860811966627,37.94597796667728],[125.02807110819137,38.50744696393048],[125.15455939889948,38.53217990890133],[125.30727028728501,39.09345184365905],[125.43484328738398,39.11792131928961],[125.47064413175116,39.24741066686289],[125.36661821135256,39.309322070293675],[125.33237400915147,39.4050177676229],[124.92540906951581,39.46973487671313],[124.89052240282885,39.56532582540888],[124.59900607336174,39.61071437342406],[124.56363213118773,39.70622872492936],[124.27136377793238,39.750903412601495],[124.19028884212997,39.67318460894036],[123.66379416702291,39.75165800710657],[123.58335704828009,39.67357051430535],[123.40777009075147,39.69915821992204],[123.18926759292822,39.551043298487514],[123.06172517951137,39.52440259496098],[123.05113596112193,39.481026690519144],[122.87582411302405,39.50590796159489],[122.79648275012019,39.42736086415129],[122.66929433450419,39.400345406264904],[122.65895151025927,39.356942179381264],[122.53193350503116,39.32979608566793],[122.52168050407262,39.286384154824376],[122.39483297723817,39.25910769589199],[122.38466951700914,39.21568709619909],[122.25799253332373,39.18828054161068],[122.09149106993712,38.98700227418541],[121.96530943958342,38.95931860524348],[121.93572308998237,38.82898149389818],[121.64542307778075,38.867849216114536],[121.69397218083964,39.08519127533431],[121.60650748228154,39.23103961381245],[121.37290315529856,39.26160917007351],[121.3240184496398,39.31268894971922],[121.36231511984661,39.486701553794205],[121.43054772702602,39.52260147252913],[121.47889524351757,39.74011228366714],[121.53768074890093,39.73245908566659],[121.61600687986163,39.811771213460545],[121.743511688931,39.839804446757135],[121.75338405160085,39.88329284409089],[121.88106412346197,39.91119611524665],[122.19761747634412,40.22743262638482],[122.2897882061469,40.61869587716816],[122.18117517774166,40.67814260406657],[122.14213354356804,40.77307961301998],[122.08257513045469,40.78100744749482],[122.04335029154429,40.87592696962099],[121.98369729397659,40.883812083195785],[121.94428844983827,40.978714292087446],[121.76500671341094,41.00216210734519],[121.68524011134244,40.92284310717173],[121.55586507072834,40.89472282888465],[121.54597367301366,40.85117595194658],[121.36687926364026,40.87409195181782],[121.28768513083638,40.79455085533121],[121.15869130718187,40.76605439881393],[121.14905375909315,40.72248524703679],[121.02024116576567,40.69385860896854],[121.01069549956402,40.650283120102614],[120.87261008180745,40.57794479409157],[120.85373559036604,40.490785290633546],[120.79427236324035,40.498141072127645],[120.71610492786023,40.41829842138416],[120.58799581815954,40.389267792873504],[120.54185590881187,40.17132120240907],[120.27769825128044,40.06922000902375],[120.26867174659515,40.02562022024841],[120.15036909372142,40.03978126330255],[120.01427269265928,39.96660742141927],[119.95515010690266,39.97358798332789],[119.87844593925828,39.8932996624994],[119.7515798874264,39.86348537112099],[119.74288853988257,39.81985828745882],[119.61620316950706,39.789916891500255],[119.60760019804248,39.74628359526845],[119.48109551184717,39.716215369014925],[119.47258061442716,39.67257588295599],[119.3462566120463,39.64238109946635],[119.32100494141109,39.511446689647215],[119.26218099900824,39.518117658267826],[119.18669657509751,39.437461416854404],[119.0608885801995,39.40700042606293],[119.05265545173987,39.36334404432603],[117.93504519946886,39.483363264235834],[117.89124370303166,39.57688037757183],[117.3599206203226,39.63026727920985],[117.2864028905921,39.54853729812302],[117.16121061700915,39.51627593929314],[117.13481697893272,38.98539734320824],[117.06919818128715,38.94733555568844],[117.02720112253837,38.684786011506205],[117.35571024111583,38.51913262222547],[117.32717389397563,38.344190290788355],[117.42895185878947,38.24509118257685],[117.54491252192925,38.233358819433136],[117.53768353863819,38.189637219650365],[117.64625561274003,38.13409358058357],[117.68952493690577,38.04072091235845],[117.74733287445261,38.03475221975758],[117.79042096859685,37.94134809003948],[117.84814514291116,37.935334739332895],[117.83340300429126,37.84793136125193],[117.94126974846601,37.792145934428966],[117.92644833661983,37.70475503505466],[118.03404381548597,37.64889345625775],[118.0765620116466,37.55539999552509],[118.24876092430965,37.53690361617694],[118.29095349530836,37.443340580131675],[118.46284688460877,37.42455915098587],[118.61911623649418,37.318241764390784],[118.79064627181845,37.299023993648795],[118.77495102223584,37.211735491636944],[118.88123061883357,37.15517274728441],[118.86546169755047,37.067894714068096],[118.91453779313392,37.01776840656187],[119.08532108002693,36.998157939894455],[119.1261976342119,36.90432356173852],[119.23985845108207,36.89108747377152],[119.36976440210245,36.964969415852565],[119.54031157027327,36.94475393502932],[119.61371477415868,37.02515200742145],[119.73583317340882,37.055069262481446],[119.74420707712922,37.098653600660356],[119.86649338272241,37.128446565941005],[119.90037639671525,37.30274501490234],[119.96596583106545,37.33936622061051],[120.08012361989282,37.32538664410088],[120.1544600965291,37.40547316576308],[120.27739690295202,37.43487534140799],[120.30360174783249,37.56551797381003],[120.55910413849627,37.66745109391634],[120.56801711407691,37.710980670086734],[121.19778351162147,37.6299089378981],[121.23638860333854,37.53542472412],[121.40768392196553,37.512732723309476],[121.44596980603916,37.41818679459358],[121.9585667394966,37.34860048599185],[122.0348831301902,37.42759015376011],[122.65060034449597,37.296033688472654],[122.59048433006042,37.035764586361424],[122.46733213496836,37.00857160432023],[122.41791100916903,36.79160646180469],[121.9659858330909,36.85519121095254],[121.57020771640019,36.64108802363604],[121.4008972830575,36.663998105635216],[121.32598689240758,36.58462951946086],[121.20401081606343,36.55622508831188],[121.19487282396638,36.512736687300794],[121.07305864673245,36.48420663158886],[121.06400283911485,36.44070809967008],[120.9423505925286,36.41205265235301],[120.92441291364803,36.3250341874043],[120.8029942079766,36.29624468252707],[120.74985004594592,36.0351059796647],[120.63771058250845,36.04968252014827],[120.57289416539699,36.01339457439381],[120.23634691778093,36.05635714736],[120.17171289410993,36.01986448067929],[120.10400021475328,35.671285693873635],[120.04813784172998,35.67830186842146],[119.84734657114342,35.52482042280104],[119.72757327148327,35.494995688072166],[119.703021151022,35.364167595867286],[119.58354822748042,35.33420303576188],[119.44011265556027,35.173230580705535],[119.41613856975978,35.04232118994021],[119.29726353931147,35.01207809393199],[119.24211319375196,34.706499578113366],[119.34469214459247,34.64949353849245],[119.30530523320633,34.431187004423975],[119.40748336569119,34.37411625896637],[119.47775824608455,34.14230981699485],[119.5794426917069,34.085082557076454],[119.61824510245324,33.99094320775365],[119.6729641340439,33.98410917090552],[119.71160745391984,33.88993128994517],[119.76624937440027,33.88305518651724],[119.80473421439004,33.78883865666251],[119.85929914239621,33.7819205692457],[119.89762611121685,33.687665272434614],[119.95211416562785,33.680705282985016],[119.99028386973397,33.58641110035117],[120.04469516966611,33.57940929019237],[120.0827082132549,33.4850761020656],[120.13704287805572,33.478032551891005],[120.17489986307177,33.3836602377981],[120.22915801231433,33.37657502767321],[120.26685953845454,33.28216346633839],[120.32104129193164,33.275036675702985],[120.2879402763318,33.10041204215431],[120.37943625861912,32.998796518621745],[120.33806601449916,32.78045464684684],[120.52831793206697,32.62065830617957],[120.63574443564711,32.60613731393172],[120.62735508265799,32.56247036774372],[120.72625071550917,32.504196939396365],[120.76297275801785,32.40952953154772],[121.1376750608837,32.35754665268021],[121.1032021992353,32.18294079904684],[120.83616182027696,32.220123878882],[120.79116270307883,32.271165526939654],[120.63071047362226,32.29312851375845],[120.56888057539669,32.25671248817944],[120.54395373481407,32.12562443223691],[120.42890568256293,32.09636482950366],[120.40425110536889,31.96521723573982],[120.44932278024116,31.914297627405126],[120.82196611037494,31.863254957688973],[120.85829191098864,31.76847026270114],[121.1238574524794,31.731214599032256],[121.1152983816062,31.687526559711532],[121.21279769855707,31.628780282484357],[121.24857133931415,31.533843053812188],[121.30151724077899,31.526263311951837],[121.3371446567442,31.43128391455563],[121.3900167584669,31.42366362594552],[121.364040826599,31.292581262793224],[121.46089893077875,31.2335947079406],[121.4348705730194,31.102486142940148],[121.53145687855063,31.04342295805118],[121.50537687112832,30.91228699077324],[121.60169275048732,30.85314688859507],[121.52354556102055,30.459542099413543],[121.47129432955191,30.467234743669522],[121.4018729308187,30.387377705057876],[121.28891469033961,30.358857755801296],[121.28040959818402,30.31507765177358],[121.16758995866985,30.28643702990688],[121.15915538621235,30.242642118903838],[120.89831555971176,30.28007795790625],[120.83785262982025,30.243677449890885],[120.81310272566367,30.112198606838554],[120.85693358127247,30.06096172844188],[121.11711399302793,30.023602772575607],[121.18596522335694,30.103683777503544],[121.65408989069086,30.03470723104838],[121.68868896266812,29.939367191797377],[122.0518175552331,29.88430054877369],[122.11254196517645,29.920097571906055],[122.13034502574547,30.007596861917992],[122.33790593888779,29.975488542791467],[122.30192071762032,29.80052428027562],[122.19836786709494,29.816598555235103],[122.13768143439991,29.78083876458292],[121.98785743820163,29.036165780652173],[121.83381631062578,29.05986285811062],[121.77382058231653,29.023855976584674],[121.69654942708692,28.628894299493556],[121.63691203166776,28.592781041177137],[121.61141449346643,28.461012238718116],[121.65392712294826,28.409294570099156],[121.61152138181997,28.18956563065616],[121.50136966620495,28.161114647336035],[121.42541876539309,28.03689297451952],[121.12051008882445,28.082686633089214],[121.06149015976338,28.046227288054972],[121.03702806010354,27.914160530327166],[120.90320289364348,27.752987329760447],[120.79383870780651,27.723821293783654],[120.7459793788435,27.459312480792775],[120.68753746049867,27.42260206220809],[120.66381459745185,27.29024816734751],[120.60551990353088,27.253479134052505],[120.57413109333267,27.076895174627854],[120.5238183694817,27.084221931843473],[120.45794860415437,27.003189256435093],[120.34966651088985,26.9735365179011],[120.32657268464457,26.840955402791803],[120.17595281430022,26.86254821439122],[120.11814551602637,26.825484884050297],[120.1029996814125,26.737036339480785],[120.14556299535305,26.68566128348414],[120.11529465046478,26.50868053267295],[119.91513806708834,26.537072454936663],[119.85765275455975,26.499841360944213],[119.80587669282708,26.189766810112335],[119.69880579240053,26.159417087791393],[119.57549557521521,25.40494040017329],[119.42710961312774,25.42560694459538],[119.3634523999238,25.343550524079422],[119.25753945772968,25.312697441720225],[119.22248424832809,25.09027878156439],[119.07453586047194,25.11048680762117],[119.0183097941891,25.072665810618194],[118.98393508755707,24.850006719401406],[118.76684918022877,24.742793842913144],[118.73321472112285,24.519825574094995],[118.48796754332004,24.552346738290908],[118.42577189814097,24.46952433740402],[118.27866078753854,24.48868915947998],[118.22315125269,24.450384617494382],[118.19095196599244,24.227042129277862],[117.97628296424533,24.118032936291836],[117.95737547583188,23.983859051774374],[117.90857279527464,23.990067088171525],[117.84728259513042,23.90676097820235],[117.74355313092396,23.87429759855527],[117.73737445976572,23.82953033598481],[117.63377096572025,23.796952343518928],[117.62765087381759,23.752167217921077],[117.52417332603544,23.719474719754675],[117.50600592756946,23.58504438052353],[117.26283532207209,23.614876225209358],[117.20237879118994,23.531098099943886],[117.10514737436077,23.542823227778978],[117.04488098349331,23.458935433389065],[116.94770567926005,23.470519901946744],[116.7734715469076,23.26326786388379],[116.75648208226758,23.12850384306492],[116.65961715140257,23.139838380247895],[116.5516142653951,23.06119136855031],[116.52944979339665,22.88131776404333],[116.28781857569497,22.908993714617285],[116.12142725999884,22.745289079457663],[115.68681406716787,22.79305118276666],[115.63340309598978,22.753202144384137],[115.61815240109172,22.618022506888515],[115.37694448657065,22.64363925350954],[115.33857349749326,22.738840947928672],[115.09697878804758,22.763806217192357],[115.0438371227943,22.723655287398675],[115.02944299853525,22.58837851335131],[114.78815632085494,22.61264927467656],[114.74919912032229,22.70764543006845],[114.60421444791127,22.721882906021804],[114.55130897378675,22.681478286529153],[114.53763296460117,22.546115509050107],[114.34460180341483,22.564677497366823],[114.29189733087641,22.524119986475093],[114.26978734654207,22.298294380367505],[113.98089908597859,22.325292074420073],[113.98945480346465,22.415660127988204],[113.94550578972455,22.465258476309522],[113.80497546107057,22.523572288518828],[113.81758771150288,22.65903750378482],[113.77343330607685,22.708520583178636],[113.62830666911115,22.721415840850373],[113.65725545958506,23.037224591443024],[113.61283644434538,23.08657450927553],[113.46709807541336,23.099231471832805],[113.41044422172394,23.013213854576808],[113.07053340450925,23.04179272810534],[113.01811773250543,23.000669980139886],[112.98372386147527,22.594294883973824],[113.07655592179289,22.541120673067184],[113.01925709359773,21.862397709817813],[112.77936264826634,21.88211119075887],[112.72406780886209,21.79534752079915],[112.62456457419682,21.757695742355573],[112.62096683881163,21.71235420629311],[112.0457834644413,21.75656174248859],[111.94332102179948,21.672886130996492],[111.9367863362623,21.582121231977748],[111.6973926821203,21.59936027328605],[111.64325436536961,21.511934599649525],[111.40398613255145,21.528501046489524],[111.35015804286107,21.4408991121881],[111.01534165592048,21.46299641871072],[110.96190858109264,21.37517142587218],[110.81849626478541,21.384238856397083],[110.56379913641511,21.126002074657407],[110.55343734453491,20.943902845591033],[110.41063376260051,20.95241865648875],[110.36053279722881,20.90966525745969],[110.35306448633362,20.772972469518074],[110.44051359140565,20.630603687560086],[110.53539865723833,20.62491382481266],[110.52258692111748,20.39681539726238],[110.47525747130182,20.39966802296629],[110.42290653242571,20.311197852997],[110.32586156693249,20.271126225176307],[110.31849152700744,20.134082172084675],[110.36322165943633,20.08560153738814],[110.78773657798382,20.05957395608545],[110.82950705964214,19.965164149796035],[111.0650123513516,19.949833837173458],[111.04547972830477,19.629656609606702],[110.99853847903005,19.63276157818053],[110.94612457068678,19.544283891861944],[110.84962759874607,19.504586733144883],[110.84694284076615,19.458782909190116],[110.75057039743673,19.418976573575662],[110.74793428230379,19.37315367254642],[110.65168627140756,19.333238215553898],[110.64393061693981,19.19568528272738],[110.54789871039104,19.155640294460746],[110.53020616409505,18.834295631552948],[110.43457185879164,18.794079748031148],[110.42716075308303,18.656192486916293],[110.19464697864302,18.67012008348107],[110.14579971383505,18.62685601760295],[110.14113274453199,18.534859674152923],[110.04594576777713,18.494218350995084],[110.04137749060381,18.40216401826661],[109.80940685454873,18.41520516327863],[109.75870254817336,18.32565026789013],[109.66387272461328,18.284605087730142],[109.66176896243012,18.238531680273407],[109.43013237262967,18.250693688207605],[109.38775111049412,18.345203875079932],[108.97026317304038,18.365538546170246],[108.83450864276512,18.464040792424854],[108.6951625188881,18.470234086101733],[108.70348016332397,18.700365759663296],[108.61198262992468,18.750388837033775],[108.63324522736362,19.347553574711803],[108.77383926266079,19.34146933805093],[108.82416939905784,19.43113123824739],[108.91975350085801,19.47277305844187],[108.92153614354005,19.518616956513476],[109.01724708629277,19.560151023148723],[109.01907703826929,19.605976446669434],[109.11491493796223,19.64740270929866],[109.11679236208127,19.693209708493118],[109.21275733397795,19.734528115644203],[109.21853794276727,19.871867921312134],[109.45404481559454,19.86027745314609],[109.5052675618978,19.949404227446465],[109.97652417318518,19.924348415051593],[110.17209353154382,20.050889911973393],[110.17925018927892,20.187990697147033],[110.13438082115982,20.23637012475596],[109.8980448217933,20.24952164873386],[109.90936037737134,20.47782851688772],[109.81681002399226,20.528578302945746],[109.77380746806277,20.622352806951927],[109.7263464947491,20.624855703948064],[109.73291152533584,20.76167121421189],[109.63999494980744,20.812204036126264],[109.65508464729353,21.13110353436896],[109.75271921351516,21.17167487032079],[109.7637970559265,21.399171823801087],[109.71814837927747,21.44713849450034],[109.09561161408418,21.477508081202764],[109.051472553246,21.57063261504607],[108.90761165969137,21.577045530125748],[108.86324196491321,21.670054781873375],[108.57517577920117,21.682153990555282],[108.47591664569364,21.595086368236817],[108.3319828670328,21.600700597789427],[108.18509257068057,21.51515590072317],[108.04126356344914,21.52036846231155],[107.99056604425219,21.431068043156735],[107.75103770414815,21.439197754287378],[107.70065571646512,21.349728071611413],[107.60373322653037,21.307252149995705],[107.60017511103909,21.17062308425932],[107.55007601379837,21.080987544684884],[107.40686923446457,21.08532669468769],[107.3093014530551,20.996947226863625],[106.97540358738036,21.005984623639705],[106.92597607689783,20.915989745338162],[106.4969912383557,20.925814836150877],[106.35045609587631,20.654892851829025],[106.34753666494854,20.42649983079951],[106.25214852088645,20.382601344398477],[106.2510752927263,20.291168486205546],[106.1553737274691,20.201418255120423],[106.15439379712298,20.109917418547905],[106.10712200746698,20.110742452286754],[106.05896043109219,20.020010306685876],[105.96410268522186,19.97576964738807],[105.96370367840053,19.929980534500118],[105.86897711671001,19.885634509472474],[105.8658040238752,19.47306359996868],[105.77156424914999,19.4285419163442],[105.7700339475824,19.198983519434677],[105.72319823969751,19.19963226962301],[105.67583926344093,19.108373257445702],[105.5820350636232,19.063604976876906],[105.58138439924433,18.92568157471245],[105.67453687250034,18.878500794625204],[105.7206577826222,18.785861409865944],[105.76729735046412,18.78521274427205],[105.76639023826317,18.647125309875605],[105.85919239241589,18.59971509288509],[105.85850321336221,18.50759234854261],[106.04281113270041,18.32024912108364],[106.13564801626568,18.318625420600153],[106.18107926941715,18.22554683035883],[106.22745281090816,18.224680689197545],[106.31908462039935,18.13061178608891],[106.4117400893157,18.128727553272807],[106.40815777168977,17.85168662293584],[106.49927868718932,17.757293318917473],[106.49800624583531,17.664831601782698],[106.58887338717072,17.570275304892863],[106.68100678633972,17.568132773636535],[106.67885232504125,17.42931022265733],[106.77009587156434,17.380788150768307],[106.81451641126307,17.28702520168751],[106.8604518738246,17.28585716494123],[106.90474690467164,17.19201219903804],[107.04241731256589,17.18831417556995],[107.08650094953263,17.09434440754316],[107.13234568935573,17.09304715870636],[107.12958272877287,16.953932064123237],[107.22018196878625,16.904882248386897],[107.2639781573819,16.81070810867241],[107.30969265968062,16.809325419560558],[107.48821014412992,16.617835518745935],[107.57945854241571,16.61483429429164],[107.66837761384045,16.51881563087683],[107.75953204864476,16.515642781463818],[107.75833028848598,16.469162235831693],[107.84819556234056,16.419413253719934],[107.89120437116118,16.32474063185127],[108.02766382939775,16.319628667349416],[108.07046501329336,16.224830884154184],[108.20678226454335,16.219462146563977],[108.24937627248895,16.1245392226943],[108.29476941051678,16.12268563548957],[108.29045471150586,15.982972533751921],[108.37963641688609,15.932610956347673],[108.42195256313848,15.837479846663507],[108.4672161586176,15.83554192587002],[108.46268007667246,15.695642088275422],[108.55152979462277,15.645049497029984],[108.59357025192432,15.549708763502577],[108.63870477140246,15.547686701734555],[108.68062559130895,15.45226186238338],[108.81589138196689,15.446004522660484],[108.8992485077191,15.254839525477227],[108.89076922009596,15.020986599336206],[108.97883532991443,14.969824901405424],[108.97365027751984,14.82934998455952],[109.06151466992188,14.778061595253284],[109.04920193246086,14.449823110360176],[109.1367126123085,14.398365164262284],[109.12777452522032,14.163517020263471],[109.215009894649,14.111909793748762],[109.19146601769366,13.49981555491712],[109.27812757968215,13.447969407980338],[109.26530085994253,13.117479785137444],[109.35161794240186,13.065458749344657],[109.34231926420857,12.828978337711499],[109.29834523215294,12.83136778771955],[109.25073817649819,12.739058038011034],[109.1610827608042,12.696372146584082],[109.14518011839634,12.269599968066853],[109.2308805221846,12.21745277602248],[109.21121261579711,11.694340286624378],[109.16769223752388,11.69668133391204],[109.12068960035607,11.603724418154899],[109.03201479874376,11.560642081338608],[109.02692280080119,11.417591014506762],[108.93843472330134,11.37437080449796],[108.93677930475268,11.326648053422176],[108.80663195531567,11.333223192361224],[108.76008942600181,11.239886868630975],[108.63003422792627,11.24620798802049],[108.5836777044482,11.152733654258634],[108.49703771741007,11.156799557830928],[108.4075445951285,11.065188558152695],[108.36425650581425,11.0671474684189],[108.31819962265999,10.97343978241005],[108.10191593190483,10.982811714544047],[108.05611599111378,10.888923292014475],[107.9684336603602,10.844612269201154],[107.96720416489569,10.79672927362493],[107.8376279546117,10.801908890255241],[107.79212607828968,10.707786805218555],[107.66264568242352,10.71271329361252],[107.61732831154812,10.618453032571011],[107.48794439182838,10.623126543486629],[107.44281127306671,10.528728079189676],[107.05408782053755,10.493444639466638],[107.01181707105303,10.542727588404697],[106.62383625513876,10.553528833330832],[106.5800931514273,10.506645908366789],[106.57695308855604,10.26655523613367],[106.4903560704419,10.22062349518288],[106.48859054824722,10.076366465301769],[98.54967718809309,9.909756136766786],[98.54124484072895,10.05385236749579],[98.45268006799776,10.096125278220706],[98.40960416345577,10.814557059740002],[98.45275327134918,10.817442337877482],[98.4901931465889,10.915872892571711],[98.57375417798168,10.969305276810044],[98.57092939728109,11.017056697995741],[98.65460568520234,11.07038225072289],[98.62938636922463,11.499451506198234],[98.71345765860765,11.55257639638014],[98.69953748494109,11.790439062412297],[98.65318951574804,11.835222603256243],[98.5225327360253,11.82684366615811],[98.51104125345759,12.016844224023478],[98.5954532499683,12.069926290786704],[98.52651236117451,13.205494762586275],[98.43536064974465,13.24701135361602],[98.4206077387887,13.482643393074065],[98.32917855734792,13.523994001177932],[98.32017094943032,13.665191643107821],[98.22854621985714,13.706403050479326],[98.17810070853145,13.797501012792262],[98.04508419577658,13.788526950807539],[98.0104679441761,14.304922944420843],[97.9181684652859,14.345691677790708],[97.9021100291063,14.57989472791204],[97.80952727310326,14.620499180740435],[97.79973018282617,14.760847192873783],[97.7069480827062,14.801313363381118],[97.62319533663077,15.966715871865334],[97.52926108185336,16.006767823852176],[97.50516355584524,16.331794886817736],[97.41084879931294,16.3716608674364],[97.3933216887677,16.60344982122539],[97.29871240334667,16.643154832483727],[97.24600664125802,16.732429020633763],[97.20042577780102,16.729062364572176],[97.18959485910081,16.867909105022648],[97.09466031246245,16.907365369628458],[97.07631927333917,17.138513884135417],[96.931570926981,17.220511994240418],[96.7942109387919,17.209926771593125],[96.75225767585695,17.1601727517768],[96.76753073659772,16.975342577059443],[96.68003796600364,16.921914443900018],[96.683885342937,16.875673645786186],[96.54701813649554,16.864722126315783],[96.50925132445045,16.76852478563938],[96.09923092188133,16.734333350973465],[96.0578147472109,16.68417022794677],[96.07016575610606,16.545339047096707],[95.84292476604999,16.525505472034094],[95.80594752310904,16.428881731168833],[95.71942994173087,16.374449784291595],[95.72369122359962,16.32812973614408],[95.49700150468277,16.307459546257164],[95.46042920138156,16.210603144146177],[95.32459254789008,16.19788610776556],[95.28822187853368,16.100913311163882],[95.06212429328033,16.079193955638885],[95.0077730651463,16.167462855215646],[94.60071508099267,16.126804665014262],[94.59595549857507,16.17311661943299],[94.50069777966566,16.210142419839062],[94.44579510205578,16.298036435381153],[94.1289437449721,16.264729672331676],[94.10400401343192,16.49591236295951],[94.18975327372983,16.551756328831726],[94.18478786238981,16.597953840862345],[94.26573331253778,16.69987848146746],[94.2459536546744,16.884493648163087],[94.33210838421053,16.94010953350126],[94.3173358254333,17.078441157659423],[94.40369454374311,17.13394350345486],[94.37916719376805,17.364257450723205],[94.4658043626138,17.419631876368562],[94.3821988130651,18.200732477667344],[94.28493409998565,18.237202519674707],[94.25986147744757,18.4663459284333],[94.16229200589459,18.50265299578936],[94.13686874618128,18.731499351370697],[94.03899294245284,18.76764362278603],[94.02354093089463,18.90480294364611],[93.92545192922799,18.940808863163987],[93.90459273171456,19.12351016785524],[93.85280177774301,19.16427496108621],[93.57351557243503,19.134492906181112],[93.46417154282364,19.26125348067141],[93.4175859831499,19.256165707264316],[93.39023378437807,19.48407923502646],[93.43692634059005,19.489174789546567],[93.47273307321696,19.58535717968501],[93.56081837440385,19.640989694023062],[93.54998337515583,19.732050974262002],[93.49772207567636,19.77252867259327],[93.35724263787118,19.757279011688258],[93.33514570124699,19.939234618176727],[93.23576408729048,19.97441004366227],[93.21899140630602,20.11074852080519],[93.16638855343977,20.150992250644638],[92.83752036612947,20.114085983131154],[92.82016332052322,20.250280139757745],[92.72027717071371,20.28490619942485],[92.69686234351065,20.46632923201535],[92.64384906101144,20.50624483478832],[92.50244352370768,20.489857518953624],[92.4905173725761,20.580486573773204],[92.39017140933294,20.614743540959836],[92.37209190358492,20.750587235057967],[92.27152630578429,20.78470495236098],[92.21204629844564,20.869591376118876],[92.16475237176107,20.86395970475297],[92.14630662033736,20.99963018354121],[92.04539957478008,21.03349321963778],[92.0267518272941,21.169052676424663],[91.92562363123116,21.20277622374913],[91.86890947080015,21.608903066226073],[91.76725725205783,21.642415296710244],[91.65793111687088,22.407571605629677],[91.54225825142561,22.530624999792675],[91.52258820832992,22.665337195636965],[91.41966673451404,22.69838117464],[91.40641829597865,22.78812782240249],[91.29663476758404,22.865894166613092],[90.91084630713816,22.81720790151467],[90.90397221789408,22.86203358004609],[90.69020485810995,22.971556245807093],[90.6279090953034,23.054835425397552],[90.57960996738642,23.04852618281285],[90.51716358630298,23.13171786186704],[90.4816594452297,23.355395759498172],[90.42606936441587,23.393737680934716],[90.3291520957143,23.380927957297484],[90.28791653295767,23.329785439511554],[90.30951379878064,23.195628114139073],[90.22005041580114,23.137974233868032],[90.25610012529404,22.91421536579311],[90.16693993449366,22.85645977121281],[90.20300822566962,22.632496732230923],[90.15495642617219,22.625984223619216],[90.12138025781273,22.529819821718494],[90.03266905050499,22.471871489144036],[90.03993106181477,22.427041744705146],[89.95136730456122,22.369003215278703],[89.9586601603094,22.324162394426672],[89.86291301388826,22.310877795081268],[89.78193621118088,22.207818055901846],[89.25645772191241,22.13274623487309],[89.22397603991301,22.036126108891807],[89.13628463200635,21.977317388553516],[89.1439342929018,21.93247026927042],[88.90590792994855,21.89718577469104],[88.87386540785246,21.80037280691825],[88.63627335271606,21.76445465005742],[88.62839677252806,21.809292020401134],[88.52543901362453,21.839591256057613],[88.46199106142485,21.92191325016088],[88.27178600294893,21.892483667069847],[88.24039417410806,21.795475972798446],[88.05051280583682,21.765628357229783],[87.99327290607025,22.079002486765496],[87.9374382116806,22.116201559303775],[87.84220807258912,22.101063038259127],[87.59864873151238,21.831477443216606],[87.6070142347578,21.78672412001805],[86.89643913139729,21.66866076151791],[86.86653017849025,21.571166109056435],[86.77202381003573,21.555020545818085],[86.609531653983,21.38827876671392],[86.63588112240666,21.25401370586526],[86.56813157467361,21.103312761036207],[86.59446068634709,20.968910377123443],[86.50939761742258,20.907666485682846],[86.53575530515674,20.773176298141237],[86.48891924893283,20.76493850525122],[86.45970637258065,20.666985795790072],[86.37499606775067,20.605557598613785],[86.38382515733151,20.56069423386104],[86.29925662255702,20.49917730891856],[86.3081111935604,20.45430145828463],[86.2236841081879,20.39269575666847],[86.2325640166915,20.347807313347666],[86.1482780606624,20.286112784864788],[86.15718316342097,20.241211641688754],[86.01756997836094,20.215861659452447],[85.9890001596521,20.117559797263308],[85.84960926588101,20.091966440868003],[85.7284587549981,19.976365183864495],[85.40396369169882,19.915477761949376],[85.33914431921517,19.996466116084974],[85.0148304843038,19.934338074456043],[84.98735822709554,19.835646146241395],[84.90431247362709,19.77279580234517],[84.92316645505724,19.683020699875055],[84.8402918754218,19.62007795715466],[84.85917520052118,19.530257822230123],[84.77647120003459,19.4672224645999],[84.7859317257795,19.42229432896089],[84.64785750411964,19.39497458313546],[84.62090651658058,19.2959617387388],[84.5385532617893,19.232668652778077],[84.54810002184107,19.18771856798518],[84.46588430897445,19.124336730359232],[84.47545375163553,19.079372878601237],[84.38377451256179,19.060870382042104],[84.31140249661046,18.952347037063642],[84.26563306919304,18.943026299993694],[84.23918962042238,18.843720843820833],[84.157459002896,18.779992239867468],[84.16713543582985,18.734991613612653],[84.12148024308077,18.725596028690767],[84.04964128185793,18.616726176306393],[83.95847093312226,18.597796339722542],[83.93242739682621,18.498261288415584],[83.88690348033387,18.488748377772218],[83.81549310470456,18.37959685704375],[83.54287460486917,18.321849103175058],[83.51731901824427,18.222085223095146],[83.33594161125484,18.183098007132017],[83.11458265419947,17.898774584420526],[83.12464341728024,17.853703014310188],[82.98921339068832,17.82390569449243],[82.96433658288797,17.723778193078463],[82.73903679580505,17.673613251336228],[82.71444641011993,17.57335461582351],[82.44466912852201,17.512364031382972],[82.37552725157438,17.401703529537034],[82.15124542076573,17.350113006675354],[82.12731813119514,17.249560299693936],[82.04823840530476,17.183648846312302],[82.05870361600815,17.13854222518916],[81.97975523762553,17.072541298215505],[81.99023945102275,17.027418837161058],[81.91142210964739,16.96132833341901],[81.9429034251186,16.82588110907141],[81.8642729876804,16.759690001951146],[81.88527009064187,16.669327408353595],[81.38556210259426,16.597426930810915],[81.35186082711935,16.54150135134262],[81.21871830312647,16.509072692961603],[81.18513749134426,16.45306552052991],[80.96356107233035,16.398506894084782],[80.94102869152582,16.297219817431255],[80.78598544538393,16.16279792389037],[80.21257301625762,16.017274626746463],[79.94954714052926,15.756861654567556],[79.97201703943107,15.666497926215104],[79.9281518700931,15.65502747144498],[79.90679868260452,15.553137705094148],[79.83046064575362,15.484892109299071],[79.84172292630127,15.4396696669312],[79.76551111836022,15.371333654500749],[79.79931641723753,15.235578868696878],[79.72328185218996,15.167139644546062],[79.8913769217124,14.486699422497129],[79.82697829198281,14.372611811614393],[80.06996092682643,13.369352897854363],[79.99508382198636,13.30047372795621],[80.02793899372027,13.163182343556356],[79.95323273409021,13.094193310240183],[79.98607831852195,12.95676535129466],[79.92249675358826,12.84182318455317],[79.94437798957416,12.750099903783564],[79.9017097251005,12.73844304458719],[79.88096247371662,12.635000261944201],[79.80671544643305,12.565694673001163],[79.81768187107062,12.5197845256915],[79.7435542970029,12.450383836718744],[79.75453580281633,12.404452391732212],[79.68052740199218,12.334956440828012],[79.69152389130754,12.28900355453497],[79.61763438444153,12.219412178150488],[79.62864576006862,12.173437706317024],[79.55487486856155,12.103750739248145],[79.56590103379159,12.05775453703118],[79.49224847972971,11.987971812410407],[79.52534317133139,11.849878194869305],[79.45185645748832,11.779981702968662],[79.59461543328368,11.180079268855582],[79.53247162428586,11.063725492953758],[79.5979247771558,10.785941515154326],[79.55777170253273,10.576575416138006],[79.015206632567,10.419199186308429],[78.99572380036281,10.314196559647886],[78.92358399395293,10.243249394122882],[78.94578228505893,10.150420348328025],[78.9153189716433,10.091684705630993],[78.83224894753357,10.067022957936663],[78.81299843620445,9.961762867222875],[78.6885848355471,9.92456581938345],[78.65831708073208,9.86566278819809],[78.66949300320773,9.819185638815439],[78.60906560464376,9.701261693259575],[78.67600737224757,9.421948794639649],[78.64588046226757,9.36286469551611],[78.48096420103334,9.312733345998657],[78.42853885546415,9.346741006397135],[77.93459210485551,9.194109656321658],[77.82748688446739,8.909614497295912],[77.86172348956127,8.769660568178884],[77.82078208635676,8.75674018130179],[77.8026893873636,8.650429525947695],[77.73235077930488,8.577789442705466],[77.74377795874507,8.531070736087761],[77.53965541284218,8.465888587795467],[77.52186854034497,8.359328763749769],[77.15539138322576,8.240556966611665],[77.09140482537902,8.320685769957006],[77.01002653051616,8.294019145015517],[76.82920173413912,8.487129027700156],[76.73594232279558,8.5068445816694],[76.67151600394828,8.586527467021575],[76.63077704900506,8.573026817074847],[76.50161463461065,8.732082488814145],[76.45374617425517,8.917962592906328],[76.34804009470223,8.983633088648503],[76.31188661860213,9.122788172423196],[76.2180199211856,9.141866318867757],[75.83793667136656,10.571609153298056],[75.71783829301442,10.681750802237321],[75.50419794289859,11.459287153978002],[75.38280025065784,11.568420119384463],[75.34459682973642,11.705088041069056],[75.24837430730831,11.72284602435307],[75.18427935343675,11.95026695149005],[75.0878151459047,11.967829212179824],[75.04910324454107,12.104067404593161],[74.95248133508859,12.121470243217676],[74.88467133392173,12.198165784665616],[74.84281853049123,12.18411801979269],[74.69898871999905,12.682099183690116],[74.57541660197904,12.78940996746728],[74.3627869802077,13.510250840589345],[74.42069752422512,13.628453246151322],[74.27295000001554,14.121942156846732],[74.14727320707809,14.227864472859933],[73.97000527723758,14.808605527913413],[73.8707355970886,14.824622574629657],[73.80180981234585,15.047350180447692],[73.70228765310823,15.063170656944196],[73.52111562884282,15.640636296849298],[73.42098145595142,15.656115049348761],[73.29396124091684,16.05457591157607],[73.19339075614997,16.069784981984583],[72.97880835321004,16.731546387827446],[73.02255385853283,16.892721471058373],[72.89242741730344,17.28832138730628],[72.95078911627363,17.405234822523656],[72.50984220338624,18.71710319098675],[72.58347215286598,18.78993970419987],[72.53880023429225,18.92059362530623],[72.61260340974259,18.993344911815136],[72.2970139609658,19.9052897602948],[72.3713827138612,19.977918661573366],[72.3258814197122,20.107828495197925],[72.37072684069189,20.12246680549651],[72.38525482902348,20.223658024283957],[72.45993414900883,20.296128092090367],[72.41440204627978,20.425910198973366],[72.45940847591186,20.440490665871845],[72.47407726629042,20.541539735033954],[72.5490695188975,20.613852316696317],[72.50350726444026,20.74350973205273],[72.5786792514288,20.815742894259618],[72.44145406144519,21.204188243135167],[72.33538946654667,21.218182597949397],[72.25841907835522,21.433563866178176],[72.30387723964641,21.448155399467016],[72.31853649112396,21.548830526993076],[72.3942046385861,21.62097422881166],[72.13040955094114,22.351366121072587],[72.06887862238212,22.379625414609],[71.9313065518062,22.335631221156515],[71.90121515364167,22.278065350162567],[71.91693811719709,22.235196785125137],[71.85687383525934,22.119993790056622],[71.88829308056724,22.03421113042215],[71.81268104009672,21.961811522164904],[71.92235592511224,21.661281150891096],[71.87685470131822,21.646534159029724],[71.86264833082193,21.545834886161096],[71.78744447510229,21.47328407658832],[71.80308567505337,21.43030376939719],[71.72801844581251,21.357677845318108],[71.74366747341605,21.314687534441575],[71.15576787722307,21.120092271045696],[71.14240008820501,21.0190933841014],[70.55755411344826,20.820857233208425],[70.43550944862034,20.87580264226298],[70.34573616134024,20.84489592451485],[70.32953788380523,20.88774837865617],[70.22354004649056,20.899584230908214],[70.14609571439357,20.96967917856121],[70.10120471353883,20.95411538184688],[70.023626861072,21.024103185645835],[69.97873029656492,21.00848925843206],[69.90101890656585,21.078369832373888],[69.85611693164688,21.06270574122505],[69.80671041283043,21.190891730698816],[69.70031339609767,21.20217456893046],[69.6506253917568,21.330216768707693],[69.51075578548783,21.426607995415466],[69.46069550518625,21.55444898873554],[69.35385146971873,21.565359616365566],[69.2698682145063,21.778141727300994],[69.16275027615019,21.788846630640307],[69.08380113457702,21.857902903962117],[69.03866629691741,21.84193054663576],[68.9877490639885,21.969342760764167],[68.88038300609676,21.979749697193494],[68.76068864193051,22.276580540272093],[69.80639175233668,22.64091854462933],[69.81855430505524,22.74147250040772],[69.90996996699384,22.772617232342583],[69.99713419753421,22.946625618340754],[69.98041259479093,22.98908974112007],[70.34762905300215,23.112501847854023],[70.36043853068608,23.212825315462496],[70.95990985157252,23.410395450859642],[71.04150108396706,23.19753523905093],[71.10388190266234,23.16995977972845],[71.24229374831951,23.21490344169251],[71.27228029522206,23.27246552821786],[71.19115419844692,23.485447537622825],[71.08230400798175,23.498049812818383],[70.96773025191494,23.795732341602303],[70.90488497531204,23.823169164111],[70.76572491984577,23.777879259789458],[70.68298095238696,23.990109788824437],[70.75936917424887,24.062804789014322],[70.78618185987814,24.26267440323809],[70.60277156732691,24.728601359812874],[70.53917212892118,24.75574143047197],[70.39876860657832,24.710114128584582],[70.36886058814379,24.65258199569431],[70.45293477814909,24.44105138440925],[70.2198866394543,24.364639853330747],[70.16920677869862,24.49150525114267],[70.10564435052798,24.518411270549265],[69.68661421248285,24.379182458779862],[69.60582678950566,24.44801139877235],[68.72504069145401,24.147963775928506],[68.64373770167586,24.216121382718622],[68.32056144048566,24.103474921440636],[68.30285721126418,24.145502813894794],[68.19287482258287,24.15513012040591],[68.11117036806411,24.222883272669364],[67.7886325577947,24.108642828488577],[67.70667119102822,24.176098916161752],[67.660640944245,24.159665100262213],[67.57038706136659,24.36913116445065],[67.46006157633217,24.378003180614108],[67.40555300321286,24.50351932913896],[67.29504902511748,24.512219074907883],[67.16690845236643,24.804649265468747],[67.05601544951833,24.813096976589133],[66.97287636872088,24.87984238844068],[66.92662323895078,24.863132836383464],[66.84334302138176,24.929768784141572],[66.7046303743896,24.879421111142957],[66.62117211912032,24.945883520198752],[66.52874603105218,24.91215186629837],[66.39892323761353,24.961543877096116],[66.35273510410678,24.944594795389083],[66.2586805428137,25.152429797098506],[66.33242418248432,25.22791845814277],[66.16219442691953,25.601514343050066],[66.05022948953739,25.608917604813072],[66.01210134875691,25.691805731903568],[65.88086748064035,25.7404651861313],[65.13915356630135,25.46395617503298],[65.05400729554901,25.529092835621608],[64.82307749068549,25.44144971437123],[64.73772391885329,25.506345044853767],[64.50716281521525,25.418030789317548],[64.42160389601314,25.482684409131586],[64.09946823432041,25.357964194815935],[63.87584271998335,25.368457630185087],[63.775648812642984,25.573824503862667],[63.709545953236834,25.59684316358241],[63.34214018712823,25.451886679794924],[63.20985969842857,25.4973769367317],[62.79798381458674,25.3322833376459],[62.66560646654718,25.377132702091995],[62.48305448393506,25.30302427374015],[62.39616923118684,25.366106442163268],[62.17236214775089,25.37311969049229],[61.853824944886796,25.241781016532308],[61.76656009875328,25.304373957782833],[61.35826164818434,25.13377881384208],[61.294933083464976,25.255691900411136],[61.183135005204214,25.258131120232523],[61.09539054808198,25.320184245987306],[60.7786325470284,25.18569835020469],[60.690681029421185,25.247440032386997],[60.64549498332411,25.228115663031257],[60.602609052522276,25.309099281748917],[60.46920652753672,25.351286078087263],[60.378845013440575,25.312446757101327],[60.29049642110728,25.373842419686568],[60.24533321887029,25.354360241290728],[60.13692232364143,25.556279219839034],[60.06994444919644,25.57709408994439],[59.753836371228594,25.439751169630906],[59.61984733725911,25.480885448626026],[59.52972601449333,25.44136182916664],[59.44067425405952,25.50204621825166],[59.305608770589316,25.442514301502676],[59.28352293521419,25.482718259665194],[59.037094666340785,25.52351650746012],[58.94762965663825,25.58378522087498],[58.812770131778,25.52366157457622],[58.72315464556934,25.583747278241383],[58.543583431081075,25.503175954946823],[58.47628483426075,25.523019470700437],[58.431312402465714,25.60306183392059],[58.31905238386229,25.602572651789874],[58.22902848580195,25.662240536923782],[58.18417757621208,25.641929931110408],[58.09402446097444,25.701480327812266],[57.9595659248311,25.64033195217126],[57.8692654492779,25.699698312602454],[57.73496342904607,25.638275053540262],[57.71212801425776,25.678134370027518],[57.599781296717815,25.67691062387718],[57.50920619077696,25.735974725508242],[57.464482811262286,25.715375518819688],[57.373779647302925,25.77432148454663],[57.32906832559229,25.753669593714694],[57.238237255247235,25.812497292204668],[57.19353819495236,25.791792703985283],[57.102579371814734,25.85050200369772],[57.013226932645296,25.80896804011965],[56.87747931471255,25.846696081773093],[56.8328470100123,25.825847368619048],[41.42448590993151,45.1585436217156],[136.96087342592813,55.73592604785856],[136.8432221570597,55.511391915623484],[136.77185458345448,55.5267120315935],[136.6538073916801,55.45222703900982]]],[[[123.09591863116941,8.307951100302562],[123.19412473536435,8.385118533882391],[123.31873762162995,8.357263071204367],[123.46638264984642,8.472538929379967],[123.47409297088129,8.520281914875648],[123.84798085930314,8.435004714629931],[123.87374366255796,8.329944958282146],[123.9152124166816,8.320347582693374],[123.8758790245329,8.081389567384663],[123.90939481178047,8.023940861975536],[124.03344238063157,7.9949800317052615],[124.09064298141995,8.080933447583522],[124.297379710455,8.032139197502339],[124.34674700944532,8.070114241648982],[124.40321998190247,8.404267041489009],[124.77602025341608,8.314878081438229],[124.82566541838467,8.352509063546302],[124.90030272142221,8.780841713817253],[125.2739319188009,8.689497616243159],[125.32390165369978,8.726753068247026],[125.34942078646786,8.869189543135455],[125.55702507151871,8.8175941706231],[125.6071426593063,8.85465595405543],[125.6781176087339,9.480492687650814],[125.92837968309743,9.417796858811734],[125.91958389801917,9.370547758295334],[125.99408831760366,9.302225420440221],[126.01806917085054,9.197102482053072],[126.05966330700504,9.186523838036123],[126.08355923461498,9.081309285489162],[126.29121047861337,9.028015343521066],[126.26448397696132,8.886001827037592],[126.33846511951424,8.817182401246182],[126.29394209242119,8.580139580693817],[126.20237980018186,8.554125381356057],[126.17587356708349,8.411671667856679],[126.20833154042981,8.353453000777119],[126.41461015358757,8.299621486909906],[126.38790026415361,8.157009337531592],[126.46133998820567,8.087773899993634],[126.4846407253976,7.9817356635899674],[126.52575345939341,7.9708522525746925],[126.48117178862422,7.732659723241589],[126.55428759241258,7.663159629037203],[126.57741847976152,7.556812847882665],[126.61837246364377,7.545855409174023],[126.64142166462423,7.439412171333588],[126.68232844335864,7.428415565646354],[126.63763428228317,7.189487335387068],[123.05828443990019,8.068605373675243],[123.09591863116941,8.307951100302562]]],[[[123.13799457848262,10.999612014483692],[123.04522593243945,10.97066270389875],[123.02983756161031,10.876469474474764],[123.0646193006445,10.82030448310246],[123.1495307684702,10.802145573993274],[123.19973001061466,10.840146728915409],[123.62397085941312,10.747884968491835],[123.56862121768827,10.41790481155125],[123.52634963130382,10.427215831350123],[123.46838563255444,10.34209853540156],[123.37607775424887,10.313385229457536],[123.30618739166579,9.887724082562375],[123.21429401018239,9.858763797201709],[123.19123636337758,9.716577768468305],[123.26758753086455,9.65075846804367],[123.22914933002762,9.413440771887528],[123.3052742990994,9.34746891041711],[123.33174192370498,9.243156422950642],[123.37358773412087,9.233873855630119],[123.33506918956728,8.996006922460426],[122.95897126699069,9.07875719959806],[122.98160804064798,9.221548414594679],[122.94727642936101,9.278211819461452],[122.65386078244696,9.341296276491653],[122.66128963228373,9.388858712447385],[122.58476398585039,9.454248566730927],[122.557560364456,9.558198446853433],[122.51552940835258,9.567069483107144],[122.56735897610177,9.8993442682854],[122.77804618389919,9.854744069527374],[122.83523406782531,9.940558455283476],[122.92709619588037,9.969902371900982],[123.05692404349983,10.773175547386787],[123.02215317039905,10.82935275286244],[122.89471336055284,10.856372803595173],[122.84461141444689,10.818202860905307],[122.83700962043864,10.771054387077662],[122.7369567016599,10.694575176924372],[122.70680414720913,10.505728629940585],[122.32518686543119,10.585018749655534],[122.26806085283197,10.499196967381259],[122.05595960862216,10.542403727842522],[122.22439965414216,11.626378390864314],[122.52412314020319,11.565550365503315],[122.55185175343699,11.462815956815694],[123.19235131970096,11.328758015787582],[123.13799457848262,10.999612014483692]]],[[[125.38974583698854,12.196844558008964],[125.42372984612942,12.140193928562832],[125.54314870537198,12.063214187913145],[125.48140506761372,11.736944659698798],[125.55777521102732,11.669925649845684],[125.51376207951716,11.436434863991662],[125.58990393111397,11.369275013722346],[125.61471195319312,11.265526674300576],[125.65711893705836,11.255266664545548],[125.61306094160274,11.021275732836743],[125.5196552427849,10.994919374133579],[125.51090756052567,10.948064778729456],[125.29931556279331,10.998899906260503],[125.27427129287052,11.102717520227664],[125.14709714019244,11.132916088167436],[125.09610667343118,11.096085451814341],[125.07039924474525,10.955439189689276],[125.14647896355169,10.888474090485822],[125.1036431775539,10.65374088766214],[125.1794966699516,10.58663083632842],[125.20451333474621,10.482530933839568],[125.24665975837786,10.472420452061996],[125.18666861081573,10.14297121457294],[125.09409756152947,10.11603109853564],[125.06861750486091,9.974581717408288],[124.85866492373198,10.024648686359294],[124.90927553230689,10.55272423667494],[124.7824465539642,10.827369040275071],[124.48603049465287,10.896012701705711],[124.54434820976743,11.224500179634013],[124.84160830045391,11.155789603156],[124.9010461830577,11.239602212436106],[124.99450974612552,11.266569665242615],[125.05453927525662,11.594030407049557],[124.90974877577325,11.773885411968214],[124.82438896116624,11.793616534201652],[124.79871458905656,11.89683549967057],[124.58496787854676,11.94571035121236],[124.5933997588543,11.992390641725384],[124.5162165782789,12.058468334859676],[124.49018839262067,12.161447507449811],[124.4473230483716,12.171103598409056],[124.48934684946944,12.40415094628054],[124.78986073459723,12.336068348122891],[124.93574974937275,12.399677263645012],[125.40734519122859,12.289909590855766],[125.38974583698854,12.196844558008964]]],[[[122.93977899248402,14.083494202269662],[123.02730535976207,14.06577257907324],[123.01939272141892,14.019470129108052],[123.09891024251444,13.955356695127298],[123.12670966111082,13.853771131634284],[123.1703661251955,13.844822286089393],[123.1465112515707,13.705756025777445],[123.18214924457051,13.65041318981512],[123.35637877248708,13.614349644799798],[123.45958773239569,13.688916898861297],[123.4757543886699,13.781593643695407],[123.69366515039322,13.73580197569796],[123.63656681605458,13.411278829711943],[123.67185228311459,13.355661653774565],[123.80204953954336,13.327910945453006],[123.82901655612712,13.225780580724074],[123.87235693531079,13.216470780697627],[123.79866892359752,12.798104551350828],[123.58270241877177,12.844375539450557],[123.55559698658352,12.946641972186319],[123.42579837191919,12.97410035492418],[123.449853363452,13.113633706256477],[123.37117188643914,13.17833347777974],[123.3437806240754,13.280354301118553],[123.21352418663122,13.30746369319867],[123.18594963713028,13.409367429101472],[122.96849114016811,13.454041830695575],[122.94848896369908,13.602214396799411],[122.91274581008688,13.65748108644028],[122.82553630024655,13.675132678307689],[122.79749583878875,13.77672234623374],[122.57912626148985,13.820394933160696],[122.52775041982734,13.782665674146097],[122.489448502853,13.550482447552374],[122.27141789236671,13.593480760043882],[122.23532738473827,13.648486986150182],[122.26553984924206,13.834245525127454],[122.352971626407,13.817136176323581],[122.40430201870457,13.854955418066686],[122.45786463048474,14.179462363794137],[122.58938237224098,14.15354119200298],[122.64871992013269,14.237456901231626],[122.86792144894508,14.193714216823668],[122.93977899248402,14.083494202269662]]],[[[141.58034711961807,40.41519661058926],[141.59353034738527,40.316515818572206],[141.7613100315214,40.267456605519584],[138.9549176138204,34.43903697404933],[138.79780213013225,34.48456205178383],[138.92684519786863,34.77566069771902],[138.8927532637451,34.832418596298695],[138.7348191954418,34.87785048217648],[138.66374269281835,34.851343874208624],[138.60868443872633,34.726502542023574],[138.48518222892497,34.714939250726424],[138.39414128753936,34.50669743185582],[138.27101298201816,34.494919647631775],[138.21681931089913,34.36987057559714],[137.3225813001784,34.61989124610981],[137.23464695150503,34.550756489014326],[136.97071852250622,34.62287202847144],[136.95273575806485,34.72095029400789],[136.79394206308027,34.76392225921396],[136.72363254559536,34.736313702996775],[136.6027652596807,34.44299701069415],[136.6383173767808,34.386862360076805],[137.00700941551014,34.28671176514582],[136.92032744053014,34.077336147605685],[136.7627982780097,34.1202911095459],[136.6759011842979,34.05073171804763],[136.55374952007494,34.03724791528629],[136.53666873632844,33.99530802696087],[136.4146255418526,33.98168582890897],[136.29602787226298,33.687870367861876],[136.17449386579958,33.674006136684305],[136.05722636310153,33.37986575211694],[135.93619874376841,33.365760871036336],[135.88640106473807,33.23958550856088],[135.52113847728475,33.336505182570896],[135.53754951247817,33.378612536417876],[135.44935787552495,33.44822977087192],[135.4297815897204,33.54618494284267],[135.27251639113518,33.587257190275146],[135.25269030110636,33.685169223664374],[135.20016546006536,33.6988048477869],[135.28192017450877,33.909432843725796],[135.1565374167313,34.03456183464493],[135.22208995810072,34.2030399561451],[135.3277787462741,34.17574056442309],[135.3971027608867,34.20414724132224],[135.47989911536374,34.4145427400834],[135.44351784017402,34.4703402822722],[135.33747648924123,34.49773133063276],[135.2514239950096,34.42720060128128],[134.6140394211788,34.58919796408325],[134.52853351033883,34.51817331512833],[134.3688822138521,34.55805025898612],[134.29962104917482,34.529077856352274],[134.25169790307132,34.40240012548707],[134.1294553129112,34.38652741670306],[134.0818889790951,34.25976878354142],[134.1191247488301,34.20436521754234],[134.38414928610771,34.13830456896174],[134.4051520002026,34.04058078515018],[134.66939455794997,33.97389810473183],[134.6900055258412,33.87611078914059],[134.7427330338667,33.86269578153974],[134.59851392688333,33.48283749081871],[134.47760128069865,33.46729323381937],[134.43002995005523,33.34055238619536],[134.3093635580729,33.324839501464744],[134.26214040430565,33.198012858557355],[133.8951739976064,33.290067830761],[133.69132033167466,33.202134428916345],[133.5338668204605,33.24098702337219],[133.34575959756165,33.19484661574321],[133.23950381705973,32.8979606789879],[133.11973651051474,32.881065744953595],[133.0147155072817,32.58386642282683],[132.75367498593792,32.647101698969394],[132.73104624764184,32.744684225392064],[132.57402879420496,32.78231836990552],[132.61836091743206,32.909844094771145],[132.5282086003513,32.97736557017163],[132.57257539543644,33.10487700258974],[132.48216720197178,33.172348385640554],[132.58598901221907,33.46979061262474],[132.75145060904842,33.614569931817854],[132.81158121851692,33.784345765793255],[132.93263336420043,33.80152586771393],[132.94777325548776,33.84394496563232],[133.31835285476518,33.754789046359996],[133.40196305444078,33.82669165658685],[133.560631530037,33.78803320006138],[133.62898217544983,33.817436760172484],[133.7067047515668,34.029058003858395],[133.82831495284174,34.045352700727456],[133.90678958751243,34.256801614592874],[133.8693814747255,34.31213856538903],[133.7098176464265,34.351174906279276],[133.6253786869648,34.27951725688323],[133.50345267026444,34.263026116865774],[133.44149069457347,34.0936720303325],[133.2360887668407,34.00505658317339],[133.22076539164033,33.96267987583354],[132.46169161331812,34.09677137698531],[132.39353673707888,34.06672988449098],[132.26011709882263,33.684305999967606],[131.9949106275285,33.745828142755926],[131.97104837126852,33.843141318244655],[131.70509509863976,33.90402892361581],[131.6229408774798,33.83099010359044],[131.46328389655952,33.86714131782337],[131.38138836642622,33.793938811154575],[131.2216969801379,33.82977809555365],[131.1542401760452,33.79904703920837],[131.0834931903635,33.58583864651168],[131.1224678675927,33.53132539062935],[131.49358072564797,33.447652092420114],[131.57522555379742,33.52080678588046],[131.84001029339387,33.46017646358107],[131.73895134991076,33.16210699973452],[131.77727857728806,33.107360342762576],[131.9352934351531,33.07077253716242],[131.95897099922396,32.973381851732746],[132.0115439274204,32.96112837374449],[131.96813834975674,32.833392040562615],[132.05859534884092,32.766274366162015],[131.98637847534837,32.55333466969521],[131.867388271463,32.535198718872486],[131.42993841519657,31.212097164444934],[131.17204871103326,31.272036013309055],[131.09297785120546,31.198383388319385],[130.73155167938285,31.28111670887087],[130.66635541107456,31.2500113160431],[130.59903808208492,31.035773155624167],[130.34110795940998,31.093924561588786],[130.46141263808013,31.47969534307531],[130.4229708221097,31.53414819644056],[130.26724847656536,31.568847808385755],[130.4148674022117,32.04002904418435],[130.53280580392547,32.05960566051931],[130.57355481430417,32.18797631150495],[130.48252874461764,32.254031835125346],[130.55054501191933,32.467931245126145],[130.66913457162238,32.48736255413268],[130.7103124935105,32.61560986566523],[130.618918939804,32.681729554683706],[130.59372100475548,32.7788864934459],[130.54105762194246,32.79052888680926],[130.51573261672908,32.887656003947335],[130.35745175941224,32.92240761273388],[130.2910809246032,32.89117223096758],[130.19641767276838,32.591652434500055],[129.9332767847462,32.648785909137935],[130.00017551837158,32.862878068798274],[129.96076956349557,32.91707366634011],[129.8021963761731,32.951100875029844],[129.92269491412168,33.336384495142454],[130.08197459227068,33.30221553417272],[130.14860272988525,33.333549433086986],[130.18938411980085,33.461837753078775],[130.34879792405403,33.427326317977624],[130.4293756536418,33.50124079624234],[130.54945928844097,33.520765347629194],[130.61872760292928,33.734293143228044],[130.7392061691995,33.753627191493685],[130.75317169760558,33.79630780309292],[130.91300477052346,33.76107546330247],[130.98033689448258,33.791939852910396],[131.02268418995936,33.91988383327714],[130.93005814017795,33.98613876914768],[131.00074998547697,34.199350421865056],[131.12202346072544,34.218301128624816],[131.13627558008358,34.260918885337],[131.40385261928918,34.201278753445976],[131.47174614896366,34.23186099094221],[131.51511778798758,34.35958122706414],[131.63675639730639,34.37802482657062],[131.6804734723093,34.5056709454539],[131.84131503936516,34.46925884948403],[131.90960568753272,34.499593643773046],[131.9538293381692,34.62713028655402],[132.07597954380617,34.64513918505006],[132.1205529185077,34.77260175919694],[132.17429621624797,34.76030037939694],[132.2579245863056,34.83291090384606],[132.380461622241,34.850618317563516],[132.4256431514027,34.9779518586326],[132.54844306073554,34.99549264130061],[132.5939795192009,35.12275242595114],[132.71704270169081,35.14012606007322],[132.76293613630207,35.26731228194121],[132.81691609951372,35.254738476496094],[132.9016638235831,35.32689214752183],[133.02511453785996,35.34396113489472],[133.0406020771878,35.386316469322054],[133.52612410592653,35.271248023616266],[133.6115395332791,35.34292024482914],[133.88083090383057,35.27799970991629],[133.96657710163427,35.34942983271305],[134.12804139987998,35.31009077776292],[134.2140475387978,35.38135046347404],[134.3754526118201,35.34169424531052],[134.4617180156138,35.412782961540714],[134.58562738079908,35.42831598821281],[134.60197357842083,35.470471714219414],[134.76336416290442,35.43031965754179],[134.85007866370697,35.50113790835499],[135.01140441821596,35.46066848023609],[135.09837665909222,35.531314339652674],[135.3670477612122,35.46322117283144],[135.38718050807756,35.36543331778578],[135.76203965437546,35.26907202565927],[135.84947272754067,35.33920492519151],[135.97352750652598,35.35336988444443],[136.02480834279706,35.4792790753283],[136.1491164583057,35.49326966622938],[136.20077180535924,35.61909730515786],[136.11064380747362,35.689061933707855],[136.26631521824066,36.06647015048434],[136.39160577411192,36.08021798206576],[136.44404514194377,36.20591282254868],[136.56959217865432,36.21948431413889],[136.6577251563769,36.42882799032193],[136.78367122599872,36.44218728741033],[136.87263971855262,36.65136924598676],[137.35999466263922,36.52164378794814],[137.43215523663406,36.548867829464704],[137.5230066943957,36.757587779893925],[137.64963530124143,36.770090478550294],[137.66793637002408,36.81180754261064],[137.83045806975508,36.76776363371127],[137.9214592295968,36.836400485097705],[138.04828105616795,36.84850876364294],[138.06681702540737,36.89016800811065],[138.1937502389196,36.90213229730312],[138.2123780339871,36.94377015861164],[138.33942227584532,36.95559024458529],[138.3581420546649,36.99720664104139],[138.48529696301142,37.00888230988002],[138.54179400126873,37.133658148350975],[138.66920304575265,37.14515172939977],[138.8404543629275,37.51915666520375],[138.96855208122912,37.530354113730496],[139.02622804233636,37.65491572485292],[139.15458131190073,37.66592912897451],[139.21266517409478,37.790409226091256],[139.26725294159218,37.77509929762464],[139.36075076063625,37.84270678035871],[139.48946917194274,37.853388769382455],[139.58753874557286,38.06059687321054],[139.49768546808093,38.132915290099426],[139.63567506449954,38.42299983016592],[139.76542346963095,38.43341029263916],[140.18741171284367,39.302567991006505],[140.0966430149065,39.375338148375796],[140.1576404580698,39.49947392607706],[140.0666017810936,39.57223327496771],[140.05152131819042,39.67068862446237],[139.9957005472677,39.68634092976204],[140.1385505947544,39.976140694734035],[140.06737228985838,40.09032404331579],[140.10837632501563,40.173138976740255],[140.01645534990112,40.24590468140712],[140.1604780980823,40.535828839968175],[140.29404092516245,40.54573142047231],[140.52354236005831,41.00097171535059],[140.75024788829532,40.937252987361894],[140.76464677934155,40.83860107581793],[140.70150230876735,40.714595819328686],[140.73692725226408,40.657303859575975],[140.90605624054746,40.609301238222656],[140.98351994742728,40.63454374006881],[141.04707320797772,40.75840511772604],[141.44142630327434,40.64515159505197],[141.4200287275189,40.603933447205286],[141.51099561428154,40.53018507856053],[141.5242926950423,40.4314995805738],[141.58034711961807,40.41519661058926]]],[[[142.37000255043577,44.95562557740492],[142.6673034652052,44.87139290521726],[142.59708919750548,44.747345542201],[142.8818748633887,44.521852167241136],[142.8939845642382,44.42233190648442],[143.18838701152245,44.33712589301913],[143.20002980969304,44.23762675879615],[143.37606808561068,44.186215508842395],[143.3874200315755,44.08673830840232],[143.79657105146117,43.96594576253674],[142.70762617284288,42.03548867561232],[142.30765708879912,42.15265510311765],[142.29512067262144,42.25164488783844],[141.66307013180318,42.433413263466235],[141.56141408899254,42.36720028862264],[141.4242876521644,42.35853402372989],[141.35866485566046,42.23457225498523],[141.221816602086,42.22570595321627],[141.2000740841097,42.18436309427858],[140.5659010467965,42.36105945814702],[140.48671814159107,42.33551446812908],[140.3377739605724,42.04524466752714],[140.37414366589687,41.98794559360345],[141.17716794444928,41.76383379265411],[141.21272950693864,41.70633894729415],[141.08361108712157,41.45846187834577],[140.6842692968992,41.57077501699127],[140.6059083400365,41.54533018866527],[140.4581066150462,41.255538176329395],[140.0589265996706,41.36598262280973],[140.24740544973108,41.739179218014236],[140.1536281517848,41.81217929101393],[140.1381975350811,41.91089481836276],[140.02309338446452,41.94232886815114],[139.94456387608136,41.91648963120323],[139.88188896942543,41.791924998672165],[139.65173863614194,41.85425457533661],[139.7557435326425,42.06205575316155],[139.89208640017463,42.07238004181365],[140.12392927244974,42.529290372286845],[140.2612149680408,42.53925565366556],[140.36190282327118,42.60644476880002],[140.65685487499363,43.04701578988561],[141.12266434240362,42.91831921512778],[141.42112321896886,42.9775007306364],[141.53195022898254,43.184337681095585],[141.43759220957648,43.258405035828986],[141.7735042318556,43.87925071638379],[141.70104091531715,43.99501043761393],[141.8825865915732,44.3263444311722],[141.83264922450041,44.483731478608675],[141.9012383533417,44.60806677879246],[141.80534406469778,44.68263481605927],[141.7916329685465,44.782124132843784],[141.7320966273812,44.79864707325279],[141.7182578340861,44.89816079534406],[141.65860471657206,44.91465811932841],[141.8192962022345,45.20532798180865],[141.96212420415333,45.213651969400644],[141.98527864392753,45.25515900272433],[142.22457855073998,45.188409000662176],[142.2377485299799,45.08876558231873],[142.35704761104938,45.05524328031724],[142.37000255043577,44.95562557740492]]],[[[143.13178927060514,53.15441597485659],[143.19890218744814,53.13659134808363],[143.21216621853392,53.03285524488251],[143.27912945897873,53.01501166921799],[143.14504344643825,52.800540245423306],[143.1850362187081,52.739904599894246],[143.38492216412507,52.68644280358696],[143.304562569107,52.558092240184976],[143.4106253613056,52.47968671239549],[143.1711185735157,52.09544289731634],[143.27658478416825,52.01737697148941],[143.1972679050768,51.889555217064895],[143.30236750754275,51.81157742447999],[143.22325139229304,51.6839408502926],[143.26248558988462,51.623742329443296],[143.45888218378502,51.57058341593619],[143.3797522300589,51.44322448044643],[143.4839127785374,51.36534363205538],[143.4963689162666,51.26282070145703],[143.56144358266337,51.24506681852363],[143.48250833998168,51.11801822020234],[143.58602733758474,51.04022257161152],[143.59826139588222,50.93789382663355],[143.66298465232444,50.92013119156257],[143.58424433327684,50.793382853642605],[143.68712913637972,50.71566771152169],[143.69914486907373,50.61352587563965],[143.76352033417942,50.59575381115568],[143.76108377646148,50.349551390893225],[143.86306528346802,50.2719126345598],[143.78471530654397,50.14573578754007],[143.88635331368582,50.06816813383306],[143.89794335032835,49.96637914468655],[143.9616338759748,49.948586268629164],[143.9730867890265,49.84685662228659],[144.03664162756792,49.82904313065663],[144.04795832019576,49.72737199991979],[144.11137796358392,49.70953789939288],[144.12255933231975,49.60792446513851],[144.18584427029387,49.59006976220888],[144.19689120508866,49.48851321325785],[144.26004192518462,49.47063791423689],[144.18188480681013,49.345199754105444],[144.2818353112075,49.26768781233121],[144.15206583939147,49.058874417804624],[144.0006638871376,49.05265594717205],[143.97490526744738,49.01088008484707],[143.66061800770046,49.09919927246736],[143.54663290014616,49.0330747464634],[143.35775815808503,49.0856021487478],[143.1558700573525,48.9947409416213],[143.1054918607378,48.91092631312719],[143.14320955772058,48.8516771347026],[142.64628979854297,48.014735518321594],[142.74601721206324,47.938732670898396],[142.574764029851,47.64634384136362],[142.67402817109127,47.57050610191397],[142.6009854007546,47.44533104302124],[142.6999254089198,47.369536775330594],[142.7128164345328,47.26911035507496],[143.01986949284716,47.18349450912686],[142.9954184829595,47.14188799584692],[143.09347568375048,47.06591657997832],[143.10572817654588,46.9655732667356],[143.16682731123535,46.948353891351886],[143.09354790603294,46.82372634606372],[143.19103804814824,46.747779166488556],[143.20309004171025,46.64754536338385],[143.26387983792057,46.63030513167066],[143.09369082001754,46.339984389459936],[142.66903150822037,46.45952807385544],[142.584296492677,46.43494008023838],[142.2285371499866,45.8116589528901],[141.98706997124873,45.8785414144612],[141.99680334362608,46.02000647006725],[141.8990351074177,46.09495377170391],[141.96936301272518,46.21985554748319],[141.87127912796322,46.294834286999105],[142.1785780520889,46.83664905226794],[142.07983448435218,46.911934593647466],[142.1513437863857,47.03710985135765],[142.05227800512031,47.11243328527448],[142.0384385689495,47.2127379563258],[141.97681797328485,47.22949764094738],[142.28925012987736,47.77299934487993],[142.1892540325702,47.84863780774977],[142.26196688579432,47.974226458513336],[142.16164019637495,48.04991044667901],[142.23451971312952,48.17562088841761],[142.13386027327306,48.251351967553354],[142.11990756153435,48.35213748151876],[141.93185773907166,48.402682605052924],[142.1022265308869,48.69678710021008],[142.00062825348255,48.7726056186957],[142.22156806370737,49.15132953421255],[142.11940938386,49.22739517052257],[142.2927469907006,49.52244404466564],[142.19009601207458,49.59870035166141],[142.2647476407717,49.72532420329956],[142.16174824968132,49.80164130658118],[142.28662067275872,50.01295601883329],[142.18319574847513,50.08940507491719],[142.1689270837804,50.19111388908317],[142.10452591432977,50.2081632257197],[142.1797068121604,50.335244317099736],[142.07564807746618,50.41175493281823],[142.35340283903858,50.878573082126756],[142.2486800921479,50.955444222181285],[142.23432396078925,51.057664885548164],[142.1690812539912,51.07482757893353],[142.15457365255304,51.177114257009634],[142.0891901466444,51.19425493088657],[142.0745300766805,51.29660852254908],[142.00900526146353,51.31372715780242],[141.99419171716747,51.4161485713566],[141.79708816881083,51.46735847819458],[141.87312811856634,51.59554645625163],[141.76667270833005,51.67242202416267],[141.7513926316942,51.775052449932545],[141.6852974326996,51.79208273397806],[141.761497782147,51.9205948346396],[141.6543730107804,51.997554411772285],[141.93593638934655,52.46982307639679],[141.8281041444578,52.5471930601423],[142.0091577335886,52.84855235485588],[141.9007757961602,52.92618256446009],[141.8854119072104,53.02971527662903],[141.81805180613588,53.046952394445036],[141.94818141962574,53.26295562604038],[142.42027944630252,53.141129699539164],[142.5140134580947,53.16670944346711],[142.75357175187878,53.55496412446093],[143.0913983900374,53.466125223832236],[143.0106494157303,53.33688466595002],[143.1183693925713,53.258238881837585],[143.13178927060514,53.15441597485659]]]]}}]}